{
"type": "FeatureCollection",
"name": "ktn_red_iii_wind",
"crs": { "type": "name", "properties": { "name": "urn:ogc:def:crs:OGC:1.3:CRS84" } },
"features": [
{ "type": "Feature", "properties": { "zone_name": "Bärofen", "shape_area": 682731.65596300003, "shape_length": 7572.629663 }, "geometry": { "type": "Polygon", "coordinates": [ [ [ 14.999107791997629, 46.885752776833868 ], [ 14.99921214448019, 46.885747684756403 ], [ 14.999315239634379, 46.885735493620984 ], [ 14.999416051233974, 46.885716325391883 ], [ 14.999513578803802, 46.885690370927918 ], [ 14.999606851472485, 46.885657887227445 ], [ 14.999694943739074, 46.88561919809824 ], [ 14.999776979214209, 46.885574687805835 ], [ 14.999852142312642, 46.885524797304569 ], [ 14.999919687461825, 46.885470025002718 ], [ 14.999978942619036, 46.88541091321737 ], [ 15.000029317223278, 46.885348050756804 ], [ 15.000070313635979, 46.885282061059307 ], [ 15.000101521838435, 46.885213600470699 ], [ 15.000122633633829, 46.885143350840821 ], [ 15.00013343834965, 46.885072007891544 ], [ 15.000133828109282, 46.885000282039357 ], [ 15.000123800091439, 46.884928886668249 ], [ 15.000103453654832, 46.884858530075526 ], [ 15.000072991564226, 46.884789912755515 ], [ 15.000032715664775, 46.884723714869004 ], [ 14.999983025569064, 46.884660596262705 ], [ 14.999924416926943, 46.884601183001678 ], [ 14.999857472188868, 46.884546065705074 ], [ 14.999782855164772, 46.884495793329101 ], [ 14.999701309406388, 46.884450863296109 ], [ 14.999613642525894, 46.884411723522476 ], [ 14.999520728541041, 46.884378763389478 ], [ 14.999423489377175, 46.884352309515336 ], [ 14.999322892217744, 46.884332624894547 ], [ 14.999219936280348, 46.884319905492433 ], [ 14.999115644866661, 46.884314277662426 ], [ 14.999011053533611, 46.884315797418616 ], [ 14.998907203510676, 46.884324449632082 ], [ 14.998854972541681, 46.884332482244908 ], [ 14.998773824575451, 46.883929051854849 ], [ 14.998778944447942, 46.883722827674895 ], [ 14.999062150261905, 46.883302536240947 ], [ 14.999286380075606, 46.883282519249661 ], [ 15.000061575237726, 46.883036702553376 ], [ 15.000877658688081, 46.883176380708726 ], [ 15.000916754314526, 46.883183072271088 ], [ 15.001077414244126, 46.883176947987259 ], [ 15.001100623905488, 46.883167344965827 ], [ 15.001121903015488, 46.883180318142429 ], [ 15.001206613696613, 46.883222403523526 ], [ 15.001297015447252, 46.883258496894172 ], [ 15.001392208937554, 46.883288239812849 ], [ 15.001491249511965, 46.883311335669298 ], [ 15.001593151319678, 46.883327555921703 ], [ 15.001696903025181, 46.883336738969163 ], [ 15.001801471827783, 46.883338792791953 ], [ 15.001905819311846, 46.883333698319291 ], [ 15.002008909177951, 46.883321504819229 ], [ 15.002109715252558, 46.883302334279627 ], [ 15.002207237115359, 46.883276377582135 ], [ 15.002300503951702, 46.883243891747405 ], [ 15.002388590318635, 46.883205200604436 ], [ 15.002470619885427, 46.883160688438707 ], [ 15.002545777125512, 46.883110796223185 ], [ 15.00261331652462, 46.883056022383194 ], [ 15.002672566097127, 46.882996909251098 ], [ 15.002716038560431, 46.882942653126051 ], [ 15.002789519653749, 46.882939255905434 ], [ 15.002913049219943, 46.882933542030621 ], [ 15.002957399193539, 46.882859046652342 ], [ 15.003009192351646, 46.882772031755522 ], [ 15.003038735270824, 46.882722397876513 ], [ 15.003117273106357, 46.882675071032565 ], [ 15.003195126383856, 46.882572967913774 ], [ 15.003259111257686, 46.882489051467182 ], [ 15.003489390777506, 46.882187041608404 ], [ 15.003745719118943, 46.881951186923658 ], [ 15.00319324186726, 46.882009718728639 ], [ 15.002796315622428, 46.882051769767116 ], [ 15.002534228929825, 46.881347865237487 ], [ 15.002765918158961, 46.881347752275403 ], [ 15.002814774418143, 46.88125342009382 ], [ 15.002844500409925, 46.881218694529203 ], [ 15.002905719854988, 46.881147181052881 ], [ 15.003019266031417, 46.881057767179179 ], [ 15.003080038205814, 46.880548456215479 ], [ 15.003309233531805, 46.880497266924692 ], [ 15.003321739936439, 46.880521100028737 ], [ 15.003366779545223, 46.880585837599796 ], [ 15.003420994543283, 46.880647177911619 ], [ 15.003483849199352, 46.880704512564556 ], [ 15.003554717094406, 46.88075727046138 ], [ 15.003632893285282, 46.880804929324967 ], [ 15.003717602089043, 46.880847012886818 ], [ 15.003808001435161, 46.880883104317782 ], [ 15.003903192017734, 46.880912845195617 ], [ 15.004002229209993, 46.880935938930293 ], [ 15.004104127194863, 46.880952157001182 ], [ 15.004207874674737, 46.880961337828992 ], [ 15.004312438890972, 46.880963389416081 ], [ 15.00441678147353, 46.880958292713906 ], [ 15.004519866171625, 46.880946097012639 ], [ 15.004620666863186, 46.880926924322047 ], [ 15.004718183181353, 46.880900965545138 ], [ 15.004811444366629, 46.880868477723261 ], [ 15.004899525032192, 46.880829784705099 ], [ 15.004981548904011, 46.880785270794838 ], [ 15.005056700512077, 46.880735376982791 ], [ 15.005124234398155, 46.880680601710111 ], [ 15.005183478631334, 46.880621487323346 ], [ 15.005233842759468, 46.880558622656778 ], [ 15.0052748292477, 46.88049263117049 ], [ 15.005306028176257, 46.880424169228149 ], [ 15.005327131440453, 46.880353918692997 ], [ 15.005337928452372, 46.880282575295908 ], [ 15.005338311412167, 46.880210849457832 ], [ 15.005328277566043, 46.88013945456261 ], [ 15.005307926330588, 46.880069098902801 ], [ 15.005300555276918, 46.880052497261765 ], [ 15.006497303362675, 46.879785178971943 ], [ 15.006946058803857, 46.880012664297411 ], [ 15.006922377591504, 46.880562449129791 ], [ 15.007345041826062, 46.88044239828006 ], [ 15.007352909513127, 46.880440163147945 ], [ 15.007388928147233, 46.880422927112527 ], [ 15.007669430062775, 46.880288697038509 ], [ 15.008059945625547, 46.880144525674851 ], [ 15.008172186364474, 46.880072337723583 ], [ 15.008220136922818, 46.879865443978019 ], [ 15.008109222361199, 46.879607288653851 ], [ 15.008192616574149, 46.879279453340267 ], [ 15.00826390172478, 46.878999213786599 ], [ 15.008261756806659, 46.87883385464135 ], [ 15.008157848878534, 46.878638704930012 ], [ 15.008150381062542, 46.87842543700846 ], [ 15.008065811913688, 46.878260960900064 ], [ 15.008035220995879, 46.877948701472569 ], [ 15.008084244743602, 46.877727112262832 ], [ 15.008077452762578, 46.87768229871638 ], [ 15.008033481614818, 46.877392255742578 ], [ 15.007916421008963, 46.877369260566027 ], [ 15.007967863845055, 46.877243564155158 ], [ 15.007944445813125, 46.876809899921582 ], [ 15.007921157743063, 46.876377996875192 ], [ 15.007993032390512, 46.876063002684823 ], [ 15.007995342910956, 46.876052882264844 ], [ 15.00802450475557, 46.875925078909752 ], [ 15.008115982119874, 46.875524172663745 ], [ 15.008143055858371, 46.875209650250383 ], [ 15.008355337937747, 46.874150020217847 ], [ 15.008385970743349, 46.874117866120237 ], [ 15.008420605089887, 46.874081512906486 ], [ 15.008542153693673, 46.873833786760443 ], [ 15.008841907197517, 46.873621445774972 ], [ 15.008842391163812, 46.873621105867144 ], [ 15.009009959070204, 46.873502416484428 ], [ 15.009300398561072, 46.873209329954221 ], [ 15.009957430702451, 46.872653807592933 ], [ 15.010202060975828, 46.872333198566515 ], [ 15.010297025746929, 46.872047209197696 ], [ 15.010553682199957, 46.871961570771759 ], [ 15.01055885782727, 46.871955107328624 ], [ 15.010598875036765, 46.8719051292289 ], [ 15.010639745923282, 46.87185409154538 ], [ 15.010616631477664, 46.871633940622338 ], [ 15.010636146281906, 46.871430194457638 ], [ 15.010705500759705, 46.871251596414218 ], [ 15.010691745651853, 46.871060674403282 ], [ 15.010796588894578, 46.870920832331237 ], [ 15.01068775004998, 46.870817572301235 ], [ 15.010645386749534, 46.870777313838225 ], [ 15.010580848822096, 46.870630107346031 ], [ 15.010566515323386, 46.870597321502416 ], [ 15.010555108283054, 46.870577609205533 ], [ 15.010466682665863, 46.870424627103112 ], [ 15.010461926446593, 46.870416401920828 ], [ 15.010404272460928, 46.870316654817998 ], [ 15.010491462793377, 46.870099107098461 ], [ 15.010466952775538, 46.870028640370428 ], [ 15.010561767634915, 46.869828692314229 ], [ 15.010627601362648, 46.869522892447407 ], [ 15.010601595819869, 46.869213600347024 ], [ 15.010241269418289, 46.869179134296637 ], [ 15.010132345310394, 46.868527228198431 ], [ 15.00999243132782, 46.868067304287187 ], [ 15.009972962050004, 46.867909140114719 ], [ 15.009956017221876, 46.867832283728681 ], [ 15.009958400218185, 46.867793049083332 ], [ 15.009961725633071, 46.867738313960821 ], [ 15.009887752670142, 46.8674236889958 ], [ 15.009901175438234, 46.867282119026861 ], [ 15.00758245733876, 46.867163975212165 ], [ 15.007572776884809, 46.867256455646221 ], [ 15.0077837333949, 46.867446490236539 ], [ 15.008328438659591, 46.868075073473975 ], [ 15.007811226351855, 46.868677692558968 ], [ 15.007850277673965, 46.86870147298827 ], [ 15.007761993759278, 46.869052517436543 ], [ 15.007440593392063, 46.869174315366621 ], [ 15.008097964349592, 46.870623174688234 ], [ 15.008123031027354, 46.870678420558626 ], [ 15.008160442469054, 46.870760873816685 ], [ 15.008179676747941, 46.870803258537435 ], [ 15.008024502103293, 46.87109328325198 ], [ 15.007806669893817, 46.871508019323727 ], [ 15.007485218797232, 46.871993182945594 ], [ 15.007234457987101, 46.872353526108064 ], [ 15.007134027595404, 46.872444623894374 ], [ 15.00697522373039, 46.872572861767516 ], [ 15.006834202997521, 46.872725928297548 ], [ 15.006654623747204, 46.872868663932522 ], [ 15.006583193039166, 46.872925162147304 ], [ 15.006538000773602, 46.872960906096566 ], [ 15.006309772507239, 46.873141421775287 ], [ 15.006003519704452, 46.873329534289851 ], [ 15.005450500382786, 46.873735087079943 ], [ 15.005286517559556, 46.873875919865924 ], [ 15.005108607460187, 46.874063426341955 ], [ 15.005078185029813, 46.874095489234378 ], [ 15.005044140441848, 46.874158801378215 ], [ 15.005036299533462, 46.874182178117735 ], [ 15.005015503587458, 46.874244217584867 ], [ 15.004988475260019, 46.874293520331307 ], [ 15.004910720597314, 46.874368624264953 ], [ 15.004869540915985, 46.874400673045578 ], [ 15.004831676031438, 46.874443171240038 ], [ 15.004799779603228, 46.874492859765354 ], [ 15.004788679503607, 46.874519009648466 ], [ 15.004796915842734, 46.874634454896402 ], [ 15.004788742325871, 46.874689755240802 ], [ 15.004772529982553, 46.87479945531085 ], [ 15.004735749402737, 46.874973398063318 ], [ 15.004680264949831, 46.875215961391994 ], [ 15.004645101890304, 46.875401517112024 ], [ 15.004610097615805, 46.875586235716966 ], [ 15.004607652415274, 46.875599140343148 ], [ 15.004577463459089, 46.875659418604187 ], [ 15.004544496236409, 46.875725246210379 ], [ 15.004491074267424, 46.875831916563413 ], [ 15.00441355170509, 46.875937957707386 ], [ 15.004349617491382, 46.876025408502002 ], [ 15.004275439353686, 46.876126874256286 ], [ 15.004183379229811, 46.87623378831023 ], [ 15.004147205380766, 46.876275797446496 ], [ 15.004117299394714, 46.876310528705488 ], [ 15.004082110634037, 46.876359817921212 ], [ 15.004050606810246, 46.876403946669903 ], [ 15.004003470390359, 46.876469971620054 ], [ 15.003953991632352, 46.876539278064527 ], [ 15.003920931091598, 46.876585585685973 ], [ 15.003870920187705, 46.876668501056869 ], [ 15.003792778004533, 46.876798056054604 ], [ 15.003777617350613, 46.876817533659811 ], [ 15.003737210686522, 46.876869443628244 ], [ 15.003683119364844, 46.87693893680219 ], [ 15.00360669101963, 46.877037124544501 ], [ 15.003480317331201, 46.87723554462071 ], [ 15.003445216207965, 46.877339819193061 ], [ 15.003442310742214, 46.877366713112423 ], [ 15.003438923748947, 46.87743636699475 ], [ 15.003413751885848, 46.877464983209848 ], [ 15.003374368615219, 46.877509768984396 ], [ 15.003365321595528, 46.877526434526395 ], [ 15.0033545968494, 46.877546406969586 ], [ 15.003342595079221, 46.877568646892293 ], [ 15.003301856825306, 46.877644309668064 ], [ 15.003258318784951, 46.877725174835497 ], [ 15.003211469656035, 46.877798423146167 ], [ 15.003173137708966, 46.877858356359773 ], [ 15.003116877757375, 46.877946320730217 ], [ 15.003048224684214, 46.878033952839957 ], [ 15.003034093259803, 46.878051991361822 ], [ 15.003021098215893, 46.878068515578427 ], [ 15.002980479811674, 46.878120164781912 ], [ 15.002950551780465, 46.878158221682163 ], [ 15.002910652771599, 46.878216582723844 ], [ 15.002896980763927, 46.878236580954606 ], [ 15.002876719997984, 46.87826621757506 ], [ 15.002850968077292, 46.878303361752884 ], [ 15.002803069368277, 46.878372447660588 ], [ 15.002781832674591, 46.878418821121336 ], [ 15.002773016244104, 46.878438071262309 ], [ 15.002750097340854, 46.878488118691308 ], [ 15.002681756560589, 46.878628571229413 ], [ 15.002585329304477, 46.878835990447236 ], [ 15.002541050037197, 46.878940938087062 ], [ 15.002492750896298, 46.879080873784247 ], [ 15.002425091157269, 46.879234890453034 ], [ 15.002379771455789, 46.879343964116764 ], [ 15.00235557027564, 46.879421596850051 ], [ 15.00235711808064, 46.879471580322303 ], [ 15.002335969501097, 46.879555861260599 ], [ 15.002291048599279, 46.879643510782039 ], [ 15.002224488868839, 46.879724629730887 ], [ 15.002148970214593, 46.879817663169597 ], [ 15.002014071028711, 46.87988011985378 ], [ 15.001972723403677, 46.879899263249271 ], [ 15.001961254650803, 46.879908074866712 ], [ 15.001912293812179, 46.879916109865505 ], [ 15.001865824379564, 46.87992906420348 ], [ 15.001816372577943, 46.879945438841787 ], [ 15.001762034546205, 46.87996505548859 ], [ 15.001726699466349, 46.879985519982704 ], [ 15.001687039115483, 46.88000848879328 ], [ 15.001660800801636, 46.880025691341018 ], [ 15.001619698635476, 46.880051288907445 ], [ 15.001565350607486, 46.880071563176955 ], [ 15.001510496744924, 46.880092026490509 ], [ 15.001473011317062, 46.880105753081352 ], [ 15.001289505355999, 46.880172949786584 ], [ 15.001148880658258, 46.880222568509332 ], [ 15.001045219395641, 46.880263002847315 ], [ 15.000992978414494, 46.880283379323771 ], [ 15.000854183566471, 46.880328936579936 ], [ 15.00078209146635, 46.880359096469284 ], [ 15.000735715883689, 46.880378497856583 ], [ 15.000702907594796, 46.880391775654061 ], [ 15.000632772884289, 46.880420160052111 ], [ 15.000528562511541, 46.880477941635547 ], [ 15.000500639681794, 46.880493424185524 ], [ 15.000481144364453, 46.880504233343551 ], [ 15.000461447108071, 46.8805166151501 ], [ 15.000404756562679, 46.880552248568421 ], [ 15.000311894921415, 46.88061061693935 ], [ 15.000143884910079, 46.880716205049055 ], [ 14.999993783278017, 46.880820432396497 ], [ 14.999850035135433, 46.880920132398934 ], [ 14.99973947149318, 46.881002213408678 ], [ 14.999668400681898, 46.881069570332883 ], [ 14.999633043199793, 46.881114522052194 ], [ 14.999526449685066, 46.881245264776233 ], [ 14.999448015195926, 46.881336710592031 ], [ 14.999385482935139, 46.881411661376092 ], [ 14.999342681535159, 46.881496778149994 ], [ 14.999285030165483, 46.881614620451316 ], [ 14.999237938247493, 46.881725538358282 ], [ 14.999229815652381, 46.881744670183984 ], [ 14.999169928911094, 46.881873825262637 ], [ 14.999098117321195, 46.882008110105232 ], [ 14.999052750114393, 46.882065422973596 ], [ 14.999042358281258, 46.882078545480738 ], [ 14.999037519621329, 46.882092038872017 ], [ 14.99901957809789, 46.882142069864265 ], [ 14.998961746561388, 46.882219317918462 ], [ 14.99892510132004, 46.882272312104092 ], [ 14.998854485725484, 46.882330711368745 ], [ 14.998776215409888, 46.882385101858411 ], [ 14.998677286285282, 46.882448140231247 ], [ 14.998591412612274, 46.882509531599318 ], [ 14.998547340415172, 46.882537877934915 ], [ 14.998495511570223, 46.882565707238022 ], [ 14.998483328817096, 46.882572253011105 ], [ 14.998450625149115, 46.882579168817571 ], [ 14.998430331687073, 46.882610255171947 ], [ 14.998247728977502, 46.882686616433773 ], [ 14.998228736734887, 46.882792103609546 ], [ 14.998020594446441, 46.882918337642728 ], [ 14.997862125336013, 46.883011520232444 ], [ 14.997740323540242, 46.883046437134048 ], [ 14.997615460609273, 46.883123281382659 ], [ 14.997397421373009, 46.883143232223944 ], [ 14.997261197069893, 46.88317358405795 ], [ 14.996901269552982, 46.883253782503218 ], [ 14.996216839962505, 46.883297409725024 ], [ 14.996075258687709, 46.883375502287947 ], [ 14.996205533004188, 46.883459060894047 ], [ 14.996259267628881, 46.883468266436758 ], [ 14.996387596517506, 46.883454755666008 ], [ 14.996427428795158, 46.883485796980345 ], [ 14.996502304990765, 46.883629511203118 ], [ 14.99653132858451, 46.883703977630397 ], [ 14.996315858932835, 46.883836835672476 ], [ 14.996271485111635, 46.8838641968917 ], [ 14.996045646274792, 46.883986197046205 ], [ 14.995891563444783, 46.884069434406477 ], [ 14.995794669086745, 46.884157385257126 ], [ 14.995665035810738, 46.88408609394731 ], [ 14.995535186655193, 46.884014683281826 ], [ 14.995342611530283, 46.883884117157741 ], [ 14.995264971298843, 46.883897863432701 ], [ 14.995187173837014, 46.883960970218133 ], [ 14.995047257395262, 46.884013166315718 ], [ 14.995013140137106, 46.883968323554377 ], [ 14.994920020980384, 46.884077907080794 ], [ 14.994851962992421, 46.884199900907802 ], [ 14.994764110978819, 46.884314382470642 ], [ 14.994593736873195, 46.884403460171114 ], [ 14.994561908781231, 46.884420104293376 ], [ 14.994418880650715, 46.884442065872307 ], [ 14.9944048732419, 46.884705701889388 ], [ 14.994468261049427, 46.884889703774597 ], [ 14.994555444547393, 46.885036515257148 ], [ 14.994600904242448, 46.885064534126407 ], [ 14.994489893836471, 46.885287153047663 ], [ 14.99453315575899, 46.885453698403751 ], [ 14.993717277737824, 46.885822504325674 ], [ 14.993664823447016, 46.885898349416586 ], [ 14.993513320872088, 46.885935401086016 ], [ 14.993389071486192, 46.885929332921371 ], [ 14.993301643855837, 46.885925063080457 ], [ 14.993136009026289, 46.885884552854584 ], [ 14.992945870690896, 46.88594177332763 ], [ 14.99321079512594, 46.886247004849672 ], [ 14.993372525247649, 46.886533391303978 ], [ 14.993386916894949, 46.886559314805552 ], [ 14.993432333952743, 46.886644698998062 ], [ 14.993489046483086, 46.886744510281986 ], [ 14.993808720283431, 46.887610994746069 ], [ 14.993886701693324, 46.888007070045134 ], [ 14.993856323967247, 46.888439563398023 ], [ 14.993806003204051, 46.888735011457797 ], [ 14.993799296744227, 46.889043222050113 ], [ 14.993752913853765, 46.889125851749732 ], [ 14.993763707974331, 46.889355620068407 ], [ 14.994020390920687, 46.889306330867306 ], [ 14.994794626893567, 46.88918328063648 ], [ 14.995229833603702, 46.889178987375871 ], [ 14.995588015456487, 46.889175458511708 ], [ 14.995949944022749, 46.889113907261056 ], [ 14.9963568689891, 46.888991279431018 ], [ 14.996860963467505, 46.888961575852697 ], [ 14.997331047020644, 46.888990501574142 ], [ 14.997037794901386, 46.8879267071218 ], [ 14.997039668120571, 46.887926054749954 ], [ 14.997127765957854, 46.887887367540728 ], [ 14.997209807015716, 46.887842859034322 ], [ 14.997284975653514, 46.887792970167354 ], [ 14.997352526243541, 46.887738199331899 ], [ 14.997411786689092, 46.887679088830417 ], [ 14.997462166376458, 46.887616227458409 ], [ 14.997503167616744, 46.887550238643442 ], [ 14.997534380343152, 46.887481778722481 ], [ 14.997555496313902, 46.887411529538774 ], [ 14.99756630481505, 46.887340186809745 ], [ 14.997566697932319, 46.887268460949691 ], [ 14.997556672811028, 46.887197065342676 ], [ 14.997536328781194, 46.887126708288399 ], [ 14.997505868583605, 46.887058090285734 ], [ 14.99746559404467, 46.886991891502255 ], [ 14.99741590476331, 46.886928771793599 ], [ 14.997357296381445, 46.886869357235746 ], [ 14.997290351346937, 46.886814238460829 ], [ 14.997215733472542, 46.886763964439659 ], [ 14.997134186318648, 46.886719032610976 ], [ 14.997046517511091, 46.88667989090893 ], [ 14.996953601086906, 46.886646928734095 ], [ 14.996856358995649, 46.886620472724857 ], [ 14.996755758449883, 46.886600785896981 ], [ 14.996669358508637, 46.88659011061997 ], [ 14.996659522579774, 46.886554426986471 ], [ 14.99555172861472, 46.886508426074407 ], [ 14.996801062056473, 46.885582191352896 ], [ 14.998248422459325, 46.885465831487856 ], [ 14.998279151927804, 46.885493863127294 ], [ 14.998350021243505, 46.885546624189544 ], [ 14.998428199995748, 46.885594286540424 ], [ 14.99851291247651, 46.885636373876814 ], [ 14.99860331657859, 46.8856724693321 ], [ 14.998698512948705, 46.88570221444396 ], [ 14.99879755690279, 46.885725312580334 ], [ 14.998899462556336, 46.885741535176798 ], [ 14.999003218535671, 46.88575072060911 ], [ 14.999107791997629, 46.885752776833868 ] ] ] } },
{ "type": "Feature", "properties": { "zone_name": "Peterer Alpe", "shape_area": 686804.74376400001, "shape_length": 7181.150637 }, "geometry": { "type": "Polygon", "coordinates": [ [ [ 14.809611303039887, 47.023836369631383 ], [ 14.807247873851104, 47.02304418356858 ], [ 14.806903067107411, 47.022398212746538 ], [ 14.806557329124187, 47.022113790400773 ], [ 14.806408089351475, 47.021619422501729 ], [ 14.806021494333597, 47.021493099126005 ], [ 14.80568510571543, 47.021293828076381 ], [ 14.805112704755743, 47.020905244607626 ], [ 14.804658291488318, 47.021080224225599 ], [ 14.801269767136635, 47.021631067916964 ], [ 14.801272761451603, 47.021991414866818 ], [ 14.801368719890698, 47.022396672689375 ], [ 14.801465545717591, 47.022665830349588 ], [ 14.801635665716866, 47.023021456488237 ], [ 14.801766708843429, 47.023333415983764 ], [ 14.801967722760747, 47.023751154010419 ], [ 14.802192661302827, 47.024223906010171 ], [ 14.802359723659276, 47.024606330976468 ], [ 14.805337741008264, 47.02537532932174 ], [ 14.805323781687584, 47.025439477168106 ], [ 14.805312100515099, 47.025464838908803 ], [ 14.805238571913266, 47.025624484449537 ], [ 14.808874025338138, 47.027715003555123 ], [ 14.808602141570828, 47.027851621889077 ], [ 14.808336837805715, 47.027984932870531 ], [ 14.80749796236552, 47.028303497369805 ], [ 14.807160021710322, 47.028454858778012 ], [ 14.806854793941001, 47.028591566715754 ], [ 14.80608135700647, 47.028843363108834 ], [ 14.805700326826852, 47.02898535974866 ], [ 14.805440093850518, 47.029168524206831 ], [ 14.805392539796403, 47.029191598254734 ], [ 14.805313460892295, 47.029238727074421 ], [ 14.805241636360943, 47.029291004275017 ], [ 14.80517778213782, 47.029347912453517 ], [ 14.805164677430863, 47.029362373117834 ], [ 14.804679918395941, 47.029703561663446 ], [ 14.804099183151925, 47.030245928243851 ], [ 14.803527026186726, 47.030166233870354 ], [ 14.802963630576446, 47.029972877633298 ], [ 14.80246197067936, 47.029908654151726 ], [ 14.80095515607178, 47.029577709462778 ], [ 14.800549674324779, 47.029485806488438 ], [ 14.800296187194057, 47.029501162298558 ], [ 14.799924358560345, 47.029523685004072 ], [ 14.799599166620775, 47.029585339614016 ], [ 14.798940905399455, 47.029652031794022 ], [ 14.798380425449466, 47.029668042640935 ], [ 14.798318689768097, 47.029677668892127 ], [ 14.79830565113174, 47.029676943980348 ], [ 14.798200766121207, 47.02967828340288 ], [ 14.798096598227271, 47.02968675668204 ], [ 14.797994181773232, 47.029702279551024 ], [ 14.797894534704, 47.029724697793021 ], [ 14.797831694990338, 47.029743762175649 ], [ 14.79761415853085, 47.029741464985371 ], [ 14.797416819254591, 47.029739381854583 ], [ 14.7971483478176, 47.029736546484983 ], [ 14.79706388393404, 47.029754360793362 ], [ 14.796856995129888, 47.029797986356016 ], [ 14.796332307983073, 47.02985492654296 ], [ 14.796043319775137, 47.0299220821326 ], [ 14.795801719728681, 47.030065533035192 ], [ 14.795113468642208, 47.030235080709524 ], [ 14.794969441707813, 47.030270559886219 ], [ 14.794833458000275, 47.030304058203839 ], [ 14.794824686255433, 47.030320926264942 ], [ 14.794816082008143, 47.030337471961388 ], [ 14.794799074297661, 47.030387297309581 ], [ 14.794821381729401, 47.030400057082183 ], [ 14.794877374886633, 47.030432085413409 ], [ 14.795049114527654, 47.030517979313487 ], [ 14.795278136268731, 47.030632522249263 ], [ 14.795734197970347, 47.030860612849864 ], [ 14.795825829602023, 47.030936611094141 ], [ 14.797532801242754, 47.030907556108922 ], [ 14.797533385406576, 47.030907991217681 ], [ 14.797611604165631, 47.03095578919833 ], [ 14.797696395159802, 47.030998023336849 ], [ 14.797786915495994, 47.031034275307185 ], [ 14.797882264662448, 47.031064185089889 ], [ 14.797981496464232, 47.031087454418724 ], [ 14.798083623142004, 47.031103853025108 ], [ 14.798187631130721, 47.031113217537879 ], [ 14.79829248508066, 47.031115454130834 ], [ 14.798397143739379, 47.031110541918196 ], [ 14.798500567721812, 47.031098528357816 ], [ 14.798601727526004, 47.031079533646356 ], [ 14.798699619218493, 47.031053746920612 ], [ 14.79879326830784, 47.031021423509053 ], [ 14.798881745552276, 47.030982885629122 ], [ 14.798964170734457, 47.030938516041608 ], [ 14.799039724400192, 47.030888754301969 ], [ 14.799048447087115, 47.030881737215445 ], [ 14.799698430901632, 47.030870658003174 ], [ 14.80074389083479, 47.031024375452787 ], [ 14.800738975749743, 47.031084234088816 ], [ 14.800743551991074, 47.031155893582167 ], [ 14.800758541401581, 47.031226885550971 ], [ 14.800783794433121, 47.031296503080497 ], [ 14.80081905939547, 47.031364056751585 ], [ 14.80086398769048, 47.031428873674358 ], [ 14.800918130184892, 47.031490309228772 ], [ 14.800980951872639, 47.031547754073983 ], [ 14.801051826662386, 47.031600636014538 ], [ 14.801130049533333, 47.031648431539374 ], [ 14.801214844352149, 47.031690663023888 ], [ 14.801305368187819, 47.031726912168367 ], [ 14.801400720493817, 47.031756818981549 ], [ 14.80149995504393, 47.0317800852266 ], [ 14.801602084051568, 47.031796480665633 ], [ 14.801706093928514, 47.031805841958985 ], [ 14.801810949306207, 47.031808075312448 ], [ 14.801915608918108, 47.031803159872418 ], [ 14.802019033369605, 47.031791143128849 ], [ 14.802120193154106, 47.031772145310015 ], [ 14.802218084338403, 47.0317463555836 ], [ 14.802311732435999, 47.031714029307928 ], [ 14.802400208215092, 47.031675488728887 ], [ 14.802482631472877, 47.031631116634074 ], [ 14.802558182774186, 47.031581352603943 ], [ 14.802626112682724, 47.031526693792394 ], [ 14.802685745336946, 47.031467681387369 ], [ 14.802736486414574, 47.031404903206742 ], [ 14.802777834647829, 47.031338981856422 ], [ 14.802784561522103, 47.031324392683445 ], [ 14.808288976433353, 47.032133446323883 ], [ 14.808983598807702, 47.030131564288581 ], [ 14.809045763625255, 47.030095224424322 ], [ 14.809135380237937, 47.030088181424041 ], [ 14.809335887264629, 47.030065337179842 ], [ 14.809707125342648, 47.030023038875719 ], [ 14.810172422035718, 47.029950583594136 ], [ 14.813805576030786, 47.030129396136083 ], [ 14.814905279309507, 47.029914794832557 ], [ 14.815089535395396, 47.02987883655495 ], [ 14.815245228979524, 47.029848451619458 ], [ 14.815824370681231, 47.029735427251943 ], [ 14.816671556418525, 47.030012709363021 ], [ 14.81736526983897, 47.03001310966426 ], [ 14.817992569545797, 47.029838031830323 ], [ 14.818698027538723, 47.029982780446147 ], [ 14.819597942244334, 47.030198163551518 ], [ 14.819899502910589, 47.030277551717703 ], [ 14.820637628007383, 47.030590054279209 ], [ 14.82066816982147, 47.030634088419554 ], [ 14.820722333995787, 47.030695514368439 ], [ 14.820785175723042, 47.030752948124338 ], [ 14.820856068712281, 47.030805817602328 ], [ 14.820934307762577, 47.030853599415337 ], [ 14.821019116578773, 47.030895816074789 ], [ 14.821109652091261, 47.030932049428358 ], [ 14.821157989117792, 47.030947200119627 ], [ 14.821364281709782, 47.031262688244809 ], [ 14.821539837382232, 47.03101153159519 ], [ 14.821615253587174, 47.031013124870611 ], [ 14.82171990938911, 47.031008191363561 ], [ 14.821823327428955, 47.030996156795219 ], [ 14.821924478264178, 47.03097714157132 ], [ 14.822022358050624, 47.030951335032221 ], [ 14.822115992414792, 47.030918992703725 ], [ 14.822204452261696, 47.030880436990877 ], [ 14.822286857546828, 47.030836050831944 ], [ 14.822362389013152, 47.030786273947122 ], [ 14.822430297422459, 47.030731603617873 ], [ 14.822489907126151, 47.030672581146725 ], [ 14.822540624030582, 47.03060979445187 ], [ 14.822581947107707, 47.030543866223304 ], [ 14.822613463083544, 47.030475452192114 ], [ 14.8226348607032, 47.030405233748482 ], [ 14.822645926459176, 47.030333906303099 ], [ 14.822646549874909, 47.030262180117703 ], [ 14.822636725808247, 47.030190768581285 ], [ 14.822616551594487, 47.030120380151374 ], [ 14.822586228284447, 47.030051715639594 ], [ 14.822546056347662, 47.0299854556743 ], [ 14.822496434355648, 47.029922260718251 ], [ 14.822437857290716, 47.029862757597947 ], [ 14.822370907289212, 47.029807537825555 ], [ 14.822296248205655, 47.029757151373374 ], [ 14.822214624022617, 47.029712096800395 ], [ 14.822126843119584, 47.029672823256341 ], [ 14.822033780653934, 47.029639721456093 ], [ 14.821936360025719, 47.029613119423402 ], [ 14.821835550223712, 47.029593281626362 ], [ 14.821732352576189, 47.029580405551648 ], [ 14.821627792787337, 47.029574619109894 ], [ 14.821522909078281, 47.029575979889984 ], [ 14.821418745588939, 47.029584474345562 ], [ 14.821383341594892, 47.029589848624973 ], [ 14.821124570452072, 47.029387422183738 ], [ 14.820300992494722, 47.028741152311859 ], [ 14.819501643702672, 47.028521503394629 ], [ 14.818187799651907, 47.02821253264726 ], [ 14.817816107901772, 47.028230620419897 ], [ 14.816993625845219, 47.028270546398424 ], [ 14.816545361639211, 47.028292303697761 ], [ 14.816396085986133, 47.028299549058723 ], [ 14.81467937650028, 47.027963559245109 ], [ 14.814436804955768, 47.028427887070428 ], [ 14.814412215696168, 47.028424816955571 ], [ 14.814307658798221, 47.028419023792779 ], [ 14.814202777005409, 47.028420377843496 ], [ 14.814098614438588, 47.028428865628278 ], [ 14.813996205368129, 47.028444402736348 ], [ 14.813896567665584, 47.028466834809365 ], [ 14.8138006909947, 47.028495938593032 ], [ 14.813709528997114, 47.028531424736364 ], [ 14.813650577511398, 47.028560035658948 ], [ 14.81352983285994, 47.028485990668173 ], [ 14.813396565725039, 47.028537831695452 ], [ 14.81291640611675, 47.028385188247036 ], [ 14.812787329854986, 47.028360533020575 ], [ 14.81241512681636, 47.028754097829896 ], [ 14.811675346414454, 47.028433464291901 ], [ 14.810892410908297, 47.028218302247055 ], [ 14.809906612971229, 47.028037481509465 ], [ 14.809611303039887, 47.023836369631383 ] ] ] } },
{ "type": "Feature", "properties": { "zone_name": "Soboth/Lavamünd", "shape_area": 2493632.1889200001, "shape_length": 12911.839061000001 }, "geometry": { "type": "Polygon", "coordinates": [ [ [ 15.035471129350057, 46.65666562090739 ], [ 15.035575036375297, 46.656660501338578 ], [ 15.035677687465567, 46.656648282831817 ], [ 15.03577806081559, 46.656629087623841 ], [ 15.035875160300149, 46.656603106841132 ], [ 15.035968019308854, 46.656570597743993 ], [ 15.036055716446416, 46.656531884392166 ], [ 15.036137379254217, 46.656487351292036 ], [ 15.036149560986901, 46.656479225122958 ], [ 15.036301658590013, 46.656539068152149 ], [ 15.036469666971232, 46.656594701904552 ], [ 15.036745776987354, 46.656659982051401 ], [ 15.037003729805821, 46.656714925436681 ], [ 15.037112192073854, 46.656730242741048 ], [ 15.037210514428605, 46.656728558380806 ], [ 15.03752012152013, 46.656682012343772 ], [ 15.037680373627872, 46.656671523353168 ], [ 15.037781473035817, 46.656675362914349 ], [ 15.037923041274327, 46.656694819797721 ], [ 15.038418562823619, 46.656812465183329 ], [ 15.038618319548249, 46.656845543016445 ], [ 15.038796401824362, 46.656857652692885 ], [ 15.039010239012171, 46.656862019642212 ], [ 15.039216808097942, 46.65684699773351 ], [ 15.039758527950898, 46.656746975302632 ], [ 15.039884812371662, 46.656730710032534 ], [ 15.04035262269878, 46.656688761661023 ], [ 15.040468093964201, 46.65667739225902 ], [ 15.040866932739766, 46.656616880107038 ], [ 15.041508731962676, 46.65645976352144 ], [ 15.041615062403487, 46.656446735471157 ], [ 15.041731250390461, 46.65643641201563 ], [ 15.04184868964699, 46.656438457049781 ], [ 15.04197525757106, 46.656449937395813 ], [ 15.04216927229646, 46.656483611919818 ], [ 15.042413539368459, 46.656535283831637 ], [ 15.042477578640595, 46.656548829824189 ], [ 15.042765939749998, 46.656603801364739 ], [ 15.043011563543653, 46.65664292055677 ], [ 15.04312713907944, 46.656658791702625 ], [ 15.04324737692963, 46.65666879083512 ], [ 15.043344171087831, 46.656670323825637 ], [ 15.043443624544834, 46.656660878103992 ], [ 15.043616373096393, 46.656629881667882 ], [ 15.043797664153411, 46.656585137741104 ], [ 15.044189275175979, 46.656458719438163 ], [ 15.044576161507935, 46.656321728280673 ], [ 15.044927245398428, 46.65617303632915 ], [ 15.045121789238545, 46.656069250534564 ], [ 15.045375368300313, 46.655882027451149 ], [ 15.046337172413104, 46.657903391109834 ], [ 15.046407617464098, 46.657866021651301 ], [ 15.046495980877788, 46.657854526120516 ], [ 15.046608567368272, 46.657862504116665 ], [ 15.046814829819013, 46.657887405584709 ], [ 15.047178866033041, 46.657922999655916 ], [ 15.047280704472978, 46.657935671668106 ], [ 15.047458949560797, 46.65797528548277 ], [ 15.047600291746772, 46.658049455440491 ], [ 15.047737472203558, 46.65811759731691 ], [ 15.047830675479682, 46.658150980524255 ], [ 15.047947108247342, 46.658182684635278 ], [ 15.048039855542173, 46.658216101483589 ], [ 15.048078844103625, 46.658245123260158 ], [ 15.048195874688696, 46.65843438022852 ], [ 15.048225154221216, 46.658508122538251 ], [ 15.048297110350596, 46.658733302435024 ], [ 15.048282538479926, 46.658845317189787 ], [ 15.048265629624007, 46.659032203268694 ], [ 15.048266448893498, 46.659151544138375 ], [ 15.048289970497086, 46.65937158819839 ], [ 15.048320483787212, 46.659482643817377 ], [ 15.048365349812549, 46.659578596475939 ], [ 15.048505064289188, 46.659776473385705 ], [ 15.048626011778188, 46.659902601450746 ], [ 15.048831943347047, 46.660052429375497 ], [ 15.049220931836752, 46.660228023317387 ], [ 15.049428971136901, 46.660253424218901 ], [ 15.049595795327866, 46.660248874301743 ], [ 15.050039197857135, 46.660198484634186 ], [ 15.050386022950391, 46.660149513674739 ], [ 15.050795991184184, 46.66007317438244 ], [ 15.050821311532276, 46.660063223253488 ], [ 15.050834185816285, 46.660053449697884 ], [ 15.050839683044813, 46.66004177166127 ], [ 15.050921065150884, 46.660020723943362 ], [ 15.051273744500163, 46.660087331854122 ], [ 15.051883633776979, 46.660172146752323 ], [ 15.052477165212625, 46.660261458878473 ], [ 15.052885385184625, 46.660356113143912 ], [ 15.053065469503778, 46.660384890218786 ], [ 15.053229923917408, 46.660411168706204 ], [ 15.053384728822978, 46.660430169362321 ], [ 15.053508929581669, 46.660445412956392 ], [ 15.05368405003658, 46.660466905892271 ], [ 15.053867478390785, 46.660490269975071 ], [ 15.053989161672561, 46.660506834558454 ], [ 15.054092381772426, 46.660526661131954 ], [ 15.054224734530875, 46.660552082642191 ], [ 15.054325688437023, 46.660571473461417 ], [ 15.054454214377852, 46.66060769591364 ], [ 15.05450271570178, 46.660621365135775 ], [ 15.054536969459109, 46.660631018538155 ], [ 15.054588099688321, 46.660650459538715 ], [ 15.054622231481844, 46.660663436909289 ], [ 15.054639241821496, 46.660669903935876 ], [ 15.054674734523978, 46.66068339879552 ], [ 15.054714981740409, 46.660698701439529 ], [ 15.054782703232579, 46.660724450138957 ], [ 15.054849862710718, 46.660749985045832 ], [ 15.054912618213399, 46.660773845394836 ], [ 15.054963273907548, 46.660793105345149 ], [ 15.054981985035717, 46.660801288356872 ], [ 15.055043611718505, 46.660828238573366 ], [ 15.055078678229334, 46.660843573962637 ], [ 15.055134834692424, 46.660868929511345 ], [ 15.055179491864235, 46.660889092736063 ], [ 15.055218897142325, 46.660906884408789 ], [ 15.055355475392979, 46.660926283165331 ], [ 15.05535550285245, 46.660926325033032 ], [ 15.05547456247829, 46.66093653952889 ], [ 15.055499653412848, 46.66093869290782 ], [ 15.05552147418795, 46.660937969991878 ], [ 15.055681498824082, 46.6609326677968 ], [ 15.055700305808376, 46.660932044127954 ], [ 15.055726852774249, 46.660931163763159 ], [ 15.055942190008858, 46.660924022120675 ], [ 15.055963227612883, 46.660923324389344 ], [ 15.055981350629551, 46.6609227226526 ], [ 15.056282562357477, 46.66091273198213 ], [ 15.056312331303253, 46.660911767045029 ], [ 15.05632439949226, 46.660901938424537 ], [ 15.056413603770471, 46.660829508202298 ], [ 15.056421139478195, 46.66082339015032 ], [ 15.056434793230364, 46.660812307041809 ], [ 15.056588375034172, 46.660687642991945 ], [ 15.05671899756365, 46.66058161531992 ], [ 15.056843373049663, 46.660480659766449 ], [ 15.057788368414563, 46.660023074098731 ], [ 15.058086171800868, 46.659980475982671 ], [ 15.058114826340022, 46.659981300430744 ], [ 15.058286901446889, 46.659986253737884 ], [ 15.05833895463852, 46.659987752266588 ], [ 15.058354673445074, 46.659988227169592 ], [ 15.05838275316467, 46.659989012527319 ], [ 15.05855647609142, 46.659994012584811 ], [ 15.058569508023181, 46.659994387582614 ], [ 15.058586676445543, 46.659994882005833 ], [ 15.058749538372746, 46.659999569439421 ], [ 15.058788719575579, 46.660000709268644 ], [ 15.058847061502163, 46.660002377333818 ], [ 15.058860626341355, 46.659995920031371 ], [ 15.058866271972954, 46.659992997716685 ], [ 15.058878646678792, 46.659988231562004 ], [ 15.059059040587575, 46.65991875011315 ], [ 15.059329973940136, 46.659814395852266 ], [ 15.059681255612258, 46.659674916880057 ], [ 15.059705447442445, 46.659665033859852 ], [ 15.0597592423359, 46.659642825756357 ], [ 15.059943475369282, 46.659566771168336 ], [ 15.060213374461108, 46.65945535066534 ], [ 15.060238184434047, 46.659445108276628 ], [ 15.060261275014971, 46.659433593699781 ], [ 15.060462087838587, 46.65933345119155 ], [ 15.060640651994257, 46.659244404581052 ], [ 15.060733790369682, 46.659197957291468 ], [ 15.060755491697632, 46.659187135549146 ], [ 15.060780636600905, 46.659170588206955 ], [ 15.060927910796876, 46.659073668379563 ], [ 15.060945856940595, 46.659061858808144 ], [ 15.060975458417868, 46.659040260527227 ], [ 15.061038797175506, 46.658994044642604 ], [ 15.06115195574862, 46.658911477275801 ], [ 15.061163583260162, 46.658902992466146 ], [ 15.061194284986112, 46.658886414304618 ], [ 15.061322724187473, 46.658817061494034 ], [ 15.061350308385398, 46.658802166652961 ], [ 15.061446501939788, 46.658785917605137 ], [ 15.061537975433257, 46.658794199359605 ], [ 15.061677503668703, 46.658824650529411 ], [ 15.061836988857046, 46.658875400911946 ], [ 15.06198144390129, 46.658937073901988 ], [ 15.062127520667321, 46.658982367804704 ], [ 15.062910993376118, 46.659211703388763 ], [ 15.063447635084005, 46.658854040539865 ], [ 15.063676685299125, 46.658539878637981 ], [ 15.063755174126005, 46.658432222037412 ], [ 15.063785553652158, 46.658390555048747 ], [ 15.063848734785315, 46.658303896482415 ], [ 15.063930154762499, 46.658192220221302 ], [ 15.063976258136268, 46.65812898563037 ], [ 15.063986672315476, 46.658087894546419 ], [ 15.06409672603831, 46.657653636482486 ], [ 15.064118022821463, 46.657569601261606 ], [ 15.064129345400579, 46.657506633845486 ], [ 15.064203347233363, 46.657095069826518 ], [ 15.0642171076952, 46.657018535820129 ], [ 15.064231838046275, 46.656936687707763 ], [ 15.064221798115661, 46.656843431966095 ], [ 15.064165947955425, 46.656324327741729 ], [ 15.064154485869592, 46.656217716652264 ], [ 15.064175252825262, 46.656079393195675 ], [ 15.064358782656445, 46.654857795985684 ], [ 15.064383959519104, 46.654690209814881 ], [ 15.06438549115934, 46.654680016870046 ], [ 15.064386495728431, 46.654673372653505 ], [ 15.064387195953971, 46.654668739108807 ], [ 15.06438887264199, 46.654657645287415 ], [ 15.064396581028124, 46.654606328966118 ], [ 15.064469330519103, 46.654122019699017 ], [ 15.064481649453246, 46.654040007344072 ], [ 15.064525666916433, 46.653983103792498 ], [ 15.064933536829493, 46.653455834814459 ], [ 15.064966668765958, 46.653413003190828 ], [ 15.064974729988608, 46.653382367436564 ], [ 15.064984406205673, 46.653345592794281 ], [ 15.064996630873855, 46.653299135184156 ], [ 15.065010753744927, 46.653245833627473 ], [ 15.065044997880626, 46.653116590849798 ], [ 15.065090458158254, 46.6529449987909 ], [ 15.065116557814562, 46.65284649106367 ], [ 15.065133802216723, 46.652561593671571 ], [ 15.064946323210966, 46.652530012922647 ], [ 15.064578519907888, 46.652574917461813 ], [ 15.064570205689101, 46.652515917886632 ], [ 15.064550125622835, 46.65244644951634 ], [ 15.064520101387956, 46.652378703878725 ], [ 15.06448043005226, 46.652313352065484 ], [ 15.064431506036692, 46.652251045703579 ], [ 15.064373816738071, 46.65219240262855 ], [ 15.064307934693648, 46.652138007003373 ], [ 15.064234514624959, 46.65208839856875 ], [ 15.064154286822836, 46.652044070045044 ], [ 15.064068049169613, 46.652005462755454 ], [ 15.063976656493114, 46.651972960490511 ], [ 15.063881019118467, 46.651946885032622 ], [ 15.063782085894454, 46.651927496413016 ], [ 15.063680841411642, 46.651914987556736 ], [ 15.063578291554933, 46.651909481802477 ], [ 15.063475455728076, 46.651911034819399 ], [ 15.063373354989476, 46.6519196311881 ], [ 15.0632730042195, 46.651935184518919 ], [ 15.063175400485285, 46.651957541225713 ], [ 15.063081515150669, 46.651986478845664 ], [ 15.062992279600333, 46.652021708953065 ], [ 15.062908582801461, 46.652062882593263 ], [ 15.062831254329813, 46.652109590538267 ], [ 15.062761063207725, 46.652161367801526 ], [ 15.062698707658679, 46.652217700089174 ], [ 15.062644807415689, 46.652278028413228 ], [ 15.062599897277831, 46.652341751887093 ], [ 15.062564424841183, 46.652408238554031 ], [ 15.062538742663133, 46.652476825505111 ], [ 15.062523104801338, 46.652546833324259 ], [ 15.062519804029336, 46.65258977894252 ], [ 15.062252504813397, 46.652587028328718 ], [ 15.061864784534547, 46.652607637242582 ], [ 15.061231985456454, 46.652664483811705 ], [ 15.060788458965732, 46.652705475095189 ], [ 15.060581375651333, 46.653929667335795 ], [ 15.060389993582211, 46.653916413919923 ], [ 15.060063774046121, 46.653891617742488 ], [ 15.059724344355446, 46.653880720365414 ], [ 15.05926198659601, 46.653876198810913 ], [ 15.058505902563857, 46.653837461518123 ], [ 15.057938100605888, 46.653776180681554 ], [ 15.057671136469853, 46.653747367735114 ], [ 15.05743493205796, 46.653734927902867 ], [ 15.05713357568438, 46.653707644182141 ], [ 15.057064392085403, 46.653697248675073 ], [ 15.05695390506899, 46.653706424263042 ], [ 15.056547569946535, 46.653740167324131 ], [ 15.055958707791236, 46.65376231232203 ], [ 15.055780642866019, 46.653760976457733 ], [ 15.055702787579484, 46.653760392724593 ], [ 15.055686973360675, 46.653765338889791 ], [ 15.055031426249583, 46.653991344155138 ], [ 15.054865033477377, 46.654051759745258 ], [ 15.054639192680732, 46.654120264934406 ], [ 15.054356660754099, 46.654181210168829 ], [ 15.054085696119005, 46.65423244537854 ], [ 15.053810702596339, 46.654276111971299 ], [ 15.05356847825445, 46.654291443753259 ], [ 15.053141738886058, 46.654276440221693 ], [ 15.053050053353314, 46.654278922963584 ], [ 15.052967861478379, 46.654292417982369 ], [ 15.052884539918731, 46.654314799797831 ], [ 15.052819754301265, 46.654342885598652 ], [ 15.0525769187738, 46.654515597715445 ], [ 15.052440680159533, 46.654578713008107 ], [ 15.05233032108068, 46.654621076859222 ], [ 15.050731084293911, 46.652956959958054 ], [ 15.05078920772109, 46.652909567569452 ], [ 15.050848159035864, 46.652850431259715 ], [ 15.050898264987888, 46.652787547615979 ], [ 15.050939030594423, 46.652721540285803 ], [ 15.050970048141963, 46.652653065791121 ], [ 15.050991011321011, 46.652582806119199 ], [ 15.051001710937404, 46.65251145709189 ], [ 15.051002040162061, 46.652439729186305 ], [ 15.050991996770852, 46.652368335806408 ], [ 15.050971680275246, 46.652297985229808 ], [ 15.050941293140722, 46.652229377890883 ], [ 15.050901136469625, 46.652163193851599 ], [ 15.050851608693762, 46.652100092821399 ], [ 15.050793203840742, 46.652040700689994 ], [ 15.050726502335745, 46.65198560786672 ], [ 15.050652165578699, 46.651935363065256 ], [ 15.050570934325581, 46.651890463433205 ], [ 15.050483613076151, 46.651851356585993 ], [ 15.050391072401727, 46.651818431576821 ], [ 15.050294230523335, 46.651792014675387 ], [ 15.050194050672918, 46.65177236850861 ], [ 15.05009152792365, 46.651759688659894 ], [ 15.049987681271876, 46.651754101089644 ], [ 15.049883541858698, 46.651755661412203 ], [ 15.049780146414971, 46.651764354094809 ], [ 15.049678521594064, 46.651780092692114 ], [ 15.049579677473538, 46.651802720843129 ], [ 15.049484595833569, 46.651832013346016 ], [ 15.049394222409104, 46.651867678972494 ], [ 15.049309453947334, 46.651909364259623 ], [ 15.049231135625481, 46.651956654447318 ], [ 15.049160042912863, 46.652009078247474 ], [ 15.049096884466516, 46.652066116795574 ], [ 15.049042286405182, 46.652127202086469 ], [ 15.048996791315238, 46.652191726883956 ], [ 15.048960853225541, 46.652259051092578 ], [ 15.048934828522546, 46.652328503692189 ], [ 15.048918975068805, 46.652399396244562 ], [ 15.048913450895473, 46.652471022912508 ], [ 15.048918310680635, 46.652542673106751 ], [ 15.04891933894122, 46.652547475883537 ], [ 15.048438407931764, 46.652580002380816 ], [ 15.047613665546296, 46.652476616881273 ], [ 15.047067045189729, 46.652412367144649 ], [ 15.046885738276162, 46.652391058270254 ], [ 15.046252987222807, 46.652365272630362 ], [ 15.046021815236678, 46.652356167702543 ], [ 15.045594119969655, 46.652575099807407 ], [ 15.044876463988409, 46.65270151127001 ], [ 15.044634123733681, 46.652744205611015 ], [ 15.04408508919173, 46.652840851229783 ], [ 15.043448175315753, 46.652790973676481 ], [ 15.043055000075805, 46.652719340646598 ], [ 15.042974919570776, 46.652704742543101 ], [ 15.042330568942537, 46.652555588171538 ], [ 15.042036850549639, 46.652519069437737 ], [ 15.041609190860726, 46.652473582981465 ], [ 15.040569834450215, 46.652502165972948 ], [ 15.039938791579921, 46.65198603754417 ], [ 15.039628447802453, 46.65168651942539 ], [ 15.03922761063475, 46.651338918420038 ], [ 15.039098899610771, 46.651140779811271 ], [ 15.039099617931477, 46.651139193044969 ], [ 15.039120596020085, 46.651068935334067 ], [ 15.039131311041876, 46.650997587195221 ], [ 15.039131656014353, 46.650925859096695 ], [ 15.039121628556737, 46.6508544644445 ], [ 15.039101328022431, 46.650784111528864 ], [ 15.039070956718, 46.650715500807465 ], [ 15.039030815588864, 46.650649312375748 ], [ 15.03898130291198, 46.650586205986812 ], [ 15.038922912565148, 46.650526807583802 ], [ 15.038856224829331, 46.65047170763836 ], [ 15.038781900967436, 46.650421454934786 ], [ 15.038700681607704, 46.650376546699448 ], [ 15.038613371131499, 46.650337430632987 ], [ 15.038520840002926, 46.650304495880476 ], [ 15.038424006348382, 46.650278068808333 ], [ 15.038323833318078, 46.650258412144602 ], [ 15.03822131591734, 46.650245721577001 ], [ 15.038117473089363, 46.650240123172367 ], [ 15.038013335937293, 46.650241672652733 ], [ 15.037909941169442, 46.650250354593197 ], [ 15.037808315432516, 46.650266082655129 ], [ 15.037709468813162, 46.650288700582188 ], [ 15.037614383116441, 46.650317983274107 ], [ 15.037524004117637, 46.650353639600205 ], [ 15.037439228619146, 46.650395316189773 ], [ 15.037406306383437, 46.650415190106777 ], [ 15.037295584544994, 46.650371368275408 ], [ 15.036691451565199, 46.6501322588541 ], [ 15.035680269380101, 46.650139823989754 ], [ 15.035077434036936, 46.649979995026236 ], [ 15.029099826526382, 46.64871138584909 ], [ 15.02645185399113, 46.648994541679109 ], [ 15.026130653622984, 46.64921953304728 ], [ 15.025733967347582, 46.649456973318273 ], [ 15.025575533075919, 46.649386807011581 ], [ 15.025133511581458, 46.649482375660348 ], [ 15.024892160545612, 46.649719597225683 ], [ 15.024651293998431, 46.649540627496037 ], [ 15.024604521769547, 46.649505731282339 ], [ 15.024606562974105, 46.649507391469797 ], [ 15.024273300257722, 46.649627628144515 ], [ 15.024206073705946, 46.649675380679817 ], [ 15.024097999374906, 46.649752135847493 ], [ 15.023554975494051, 46.650137809598284 ], [ 15.023554763329198, 46.650137960259976 ], [ 15.02323635983749, 46.650364096813227 ], [ 15.023028184827394, 46.650665388200288 ], [ 15.022724002284139, 46.650920848712929 ], [ 15.02260366757042, 46.651021901069576 ], [ 15.022574131320246, 46.651046706275494 ], [ 15.022462122434746, 46.651140771901275 ], [ 15.022458251271683, 46.651211644217966 ], [ 15.022447198562462, 46.651273383681804 ], [ 15.022424354709219, 46.651359666701403 ], [ 15.022355329686439, 46.651495082103345 ], [ 15.022291787741153, 46.651636272923845 ], [ 15.022210157911536, 46.651815890676325 ], [ 15.02217076498899, 46.651940523946372 ], [ 15.022138030331156, 46.652215478459318 ], [ 15.022127604691914, 46.652338173428447 ], [ 15.022123832258856, 46.65238239859422 ], [ 15.022123345067364, 46.652521382463661 ], [ 15.022129087207951, 46.652543463568598 ], [ 15.022167193778905, 46.652690100760715 ], [ 15.022189608939087, 46.65277028309643 ], [ 15.022174322839401, 46.652850931196483 ], [ 15.022104459861252, 46.652975437816814 ], [ 15.022048873138559, 46.653073807974145 ], [ 15.021982818281058, 46.653164497013925 ], [ 15.021873552646044, 46.65328268440674 ], [ 15.02172586031846, 46.653404928346191 ], [ 15.021594728862652, 46.653524526179297 ], [ 15.021474116867697, 46.653684171253396 ], [ 15.021380395075886, 46.653811592756313 ], [ 15.02126293183569, 46.653931762463323 ], [ 15.02120165409039, 46.654027850125985 ], [ 15.021181191194737, 46.654134518323183 ], [ 15.021176257916819, 46.654214572961209 ], [ 15.02110149705506, 46.654355226643162 ], [ 15.020989115331854, 46.654513283620332 ], [ 15.020875856164441, 46.654653208809144 ], [ 15.02073409043995, 46.654777595106466 ], [ 15.020550733760457, 46.654878232978703 ], [ 15.020268592491259, 46.655028416765326 ], [ 15.020047713928886, 46.655168225377508 ], [ 15.019867091685052, 46.655251819764594 ], [ 15.019604848884446, 46.655308305266395 ], [ 15.019356902838059, 46.655332232569826 ], [ 15.019347358991308, 46.655333153849362 ], [ 15.019110750633251, 46.655348464894502 ], [ 15.018775454672078, 46.655364282657025 ], [ 15.018549422187993, 46.655370971886875 ], [ 15.018409066368305, 46.655362043296712 ], [ 15.018200978510677, 46.655343261601203 ], [ 15.0179771064752, 46.655312189410338 ], [ 15.017660757776408, 46.6552691354606 ], [ 15.017351668237627, 46.655217904680704 ], [ 15.017182465248174, 46.655205566349537 ], [ 15.017043454601453, 46.655209246462363 ], [ 15.016881731365981, 46.655234643234145 ], [ 15.016615093673169, 46.655299912407592 ], [ 15.016400282144048, 46.65537781445915 ], [ 15.016153611319039, 46.655475309176843 ], [ 15.015861909763595, 46.655561967965134 ], [ 15.015672562394746, 46.655608755948705 ], [ 15.01544255489773, 46.655445350251689 ], [ 15.015134171673562, 46.655346425205074 ], [ 15.014758456365259, 46.65592542372184 ], [ 15.014492057824688, 46.656191111509052 ], [ 15.014109184394467, 46.656518059735056 ], [ 15.013860367147878, 46.656765226573597 ], [ 15.013384691608369, 46.657306554656579 ], [ 15.012884647018925, 46.657562890281412 ], [ 15.011619587051927, 46.658481729763665 ], [ 15.011599701773768, 46.658496240736028 ], [ 15.011536270348181, 46.65847364754277 ], [ 15.011439434514873, 46.658447197678811 ], [ 15.01133925544012, 46.658427517476753 ], [ 15.011236726910941, 46.658414803776417 ], [ 15.011132870524781, 46.658409181047126 ], [ 15.011028717547122, 46.658410706151578 ], [ 15.010925302244916, 46.658419363945548 ], [ 15.010823652746989, 46.658435067411901 ], [ 15.010724779431376, 46.658457662328175 ], [ 15.010629664340678, 46.658486922923444 ], [ 15.010539252264316, 46.658522559205139 ], [ 15.010454444154478, 46.658564215255673 ], [ 15.010376080455304, 46.658611479371324 ], [ 15.010304942298379, 46.658663880445864 ], [ 15.010241733497262, 46.658720897229038 ], [ 15.010187084659576, 46.658781964562905 ], [ 15.010141538876402, 46.658846475389723 ], [ 15.010105547997862, 46.658913787102975 ], [ 15.010079469047012, 46.658983232394213 ], [ 15.010063562912327, 46.659054119271737 ], [ 15.010057986954337, 46.659125745561923 ], [ 15.01006279756, 46.659197397072241 ], [ 15.010077944110538, 46.659268363872087 ], [ 15.010103279399345, 46.6593379392408 ], [ 15.010138550849161, 46.659405431490882 ], [ 15.010183405956264, 46.659470171085346 ], [ 15.010237401513862, 46.659531513201969 ], [ 15.010268422449586, 46.659559926789235 ], [ 15.009586164139032, 46.660071642288905 ], [ 15.009082306235223, 46.660476807791319 ], [ 15.008759190501163, 46.661006349267112 ], [ 15.00856366562626, 46.661326755257235 ], [ 15.008560563837701, 46.661326800607874 ], [ 15.008457142502623, 46.661335455344627 ], [ 15.008355486813029, 46.661351157589706 ], [ 15.008256607125475, 46.66137375044417 ], [ 15.008161485573671, 46.661403009056826 ], [ 15.008071068289436, 46.661438642536432 ], [ 15.007986253760789, 46.661480297719955 ], [ 15.007907883718548, 46.661527560204576 ], [ 15.007836738051457, 46.661579958919354 ], [ 15.007773524635612, 46.661636975268962 ], [ 15.007718870136504, 46.661698041468298 ], [ 15.007673317701531, 46.661762550470947 ], [ 15.007637321928906, 46.661829862339019 ], [ 15.007611239779573, 46.661899306174782 ], [ 15.007595329685554, 46.66197019362685 ], [ 15.007589750241973, 46.662041818908953 ], [ 15.00759455667515, 46.662113471445501 ], [ 15.007609702229795, 46.662184438549943 ], [ 15.00763503580432, 46.66225401355571 ], [ 15.007670304921371, 46.662321507467524 ], [ 15.007715160922457, 46.662386247986163 ], [ 15.007769155408708, 46.662447591255628 ], [ 15.007831754827773, 46.662504928847007 ], [ 15.007902335331959, 46.66255769053312 ], [ 15.007980194753912, 46.662605351310681 ], [ 15.008061690236177, 46.662646006020736 ], [ 15.007860393275926, 46.663189190151883 ], [ 15.007771459075189, 46.663686609197342 ], [ 15.007623139769231, 46.664088820590862 ], [ 15.008551942386445, 46.664610495765828 ], [ 15.008947841107826, 46.664901838600741 ], [ 15.009154869333228, 46.665105424014875 ], [ 15.009187729527246, 46.665124754885717 ], [ 15.009284145553872, 46.665218583347574 ], [ 15.009437609680157, 46.665308086846068 ], [ 15.009718532464973, 46.665487401740627 ], [ 15.009833721208686, 46.665580604237974 ], [ 15.011956688227054, 46.665290127354737 ], [ 15.011883635263109, 46.665220526453851 ], [ 15.011809262006274, 46.665175422462696 ], [ 15.011691481140332, 46.665127382929477 ], [ 15.011535266330243, 46.665049608302567 ], [ 15.01141875164749, 46.664968103497742 ], [ 15.01132859607768, 46.664887112131936 ], [ 15.011245934288308, 46.664790250283829 ], [ 15.011192145074839, 46.664718162859522 ], [ 15.011158279683345, 46.664656542655116 ], [ 15.011122595191562, 46.664576642590262 ], [ 15.011119655056545, 46.664524617854859 ], [ 15.011135307406864, 46.664486075470876 ], [ 15.011193002103717, 46.664426595885068 ], [ 15.011326887885954, 46.664338320354766 ], [ 15.011510276128037, 46.664227405827312 ], [ 15.011748688805598, 46.664103423685795 ], [ 15.01213935280151, 46.663929964319763 ], [ 15.012384633555202, 46.663810558036033 ], [ 15.012499151619735, 46.663745540255164 ], [ 15.012552658025582, 46.663691401898078 ], [ 15.012578975300549, 46.663620866805616 ], [ 15.012566149396434, 46.663567799533439 ], [ 15.012507227953064, 46.66351272705618 ], [ 15.012317376980628, 46.663414459179272 ], [ 15.012159693796272, 46.663338083267668 ], [ 15.012036966344763, 46.663278691870225 ], [ 15.011953425901574, 46.663208740882688 ], [ 15.011803444696829, 46.66305810810011 ], [ 15.01165121930276, 46.662916009040117 ], [ 15.011594788518668, 46.662853109227122 ], [ 15.011579579833398, 46.662794355399512 ], [ 15.011579691356724, 46.662755680737774 ], [ 15.011606600220022, 46.662706376324977 ], [ 15.011699832285474, 46.662648984714991 ], [ 15.011864247960629, 46.662567439973991 ], [ 15.012087953385763, 46.662461646183225 ], [ 15.01220002529676, 46.662361958649434 ], [ 15.012274571681669, 46.662271186993671 ], [ 15.012360368173445, 46.662119141819289 ], [ 15.012432701555053, 46.662011751220881 ], [ 15.012534238138624, 46.661895503505306 ], [ 15.012699535334608, 46.661721305660812 ], [ 15.012876769700673, 46.661511902860312 ], [ 15.012911089001186, 46.66146947925494 ], [ 15.012980192315133, 46.6613840314755 ], [ 15.013087520447639, 46.661241349589062 ], [ 15.013223638932276, 46.661030443975321 ], [ 15.013409615353813, 46.660737574842678 ], [ 15.013502130360949, 46.660579879827118 ], [ 15.013583069665403, 46.660441227724839 ], [ 15.013645253697669, 46.660382220766365 ], [ 15.01370412229376, 46.660345706976862 ], [ 15.01379833914558, 46.66030007471462 ], [ 15.013944604134711, 46.660260587740765 ], [ 15.014233127358546, 46.660186421805918 ], [ 15.014408197443339, 46.660132864984831 ], [ 15.014555156008555, 46.660062628319956 ], [ 15.014683477719046, 46.659974511377179 ], [ 15.014825036150967, 46.659867875537337 ], [ 15.014835871268259, 46.659857020489135 ], [ 15.014897979167538, 46.659794775461009 ], [ 15.014984809641579, 46.659653274162693 ], [ 15.015075033742672, 46.659460194896717 ], [ 15.015172414407878, 46.659226097489061 ], [ 15.015231588226138, 46.659095715976719 ], [ 15.015305903522984, 46.658963609853743 ], [ 15.015427336482613, 46.658803365691561 ], [ 15.015547694510644, 46.658651044508844 ], [ 15.015834757148014, 46.65836767999518 ], [ 15.015971644537286, 46.658214638846488 ], [ 15.01607250027665, 46.658077302678102 ], [ 15.016125990579308, 46.657976123639088 ], [ 15.016149333899897, 46.65785621724509 ], [ 15.016166273198525, 46.657769140720767 ], [ 15.016180901241743, 46.657723856773188 ], [ 15.016242881055074, 46.657658869140626 ], [ 15.016311200043733, 46.65760788482234 ], [ 15.016437175359382, 46.657543828186093 ], [ 15.016628514440955, 46.657460774501772 ], [ 15.016811161762984, 46.65738521578799 ], [ 15.017048311189358, 46.657272827581863 ], [ 15.017260843967076, 46.657173889605744 ], [ 15.017405037533713, 46.657092382105859 ], [ 15.017560343076694, 46.656976131112366 ], [ 15.017658301550398, 46.656901878870798 ], [ 15.017749120407331, 46.656838391564136 ], [ 15.017751048031791, 46.656837355692623 ], [ 15.017777307365044, 46.656822990123274 ], [ 15.017804536953593, 46.656811264053133 ], [ 15.017858211114795, 46.656789883479838 ], [ 15.017917627667215, 46.656771674942632 ], [ 15.017997667753967, 46.656761277377093 ], [ 15.018168823053415, 46.656745833662491 ], [ 15.018461105259799, 46.656720763913398 ], [ 15.018727174693714, 46.656693452223507 ], [ 15.018967644133005, 46.656664699385338 ], [ 15.019149248953001, 46.656627726375362 ], [ 15.019302041290507, 46.65656873245559 ], [ 15.019446143666668, 46.656506744660518 ], [ 15.019597341695148, 46.656458280936306 ], [ 15.019699284768041, 46.656446426344097 ], [ 15.019969800118028, 46.656442444477314 ], [ 15.020226582171134, 46.656427878165069 ], [ 15.020566790734129, 46.656386210760218 ], [ 15.0210391462356, 46.656306162763897 ], [ 15.021282323986764, 46.656263754464035 ], [ 15.021454967177725, 46.656217653098295 ], [ 15.021549966928742, 46.656178731743417 ], [ 15.021677395970251, 46.656105004351801 ], [ 15.021773706422232, 46.656038068466835 ], [ 15.021868985079063, 46.655945932388384 ], [ 15.0219393224905, 46.655891190660434 ], [ 15.022018342692709, 46.655861500250431 ], [ 15.022146560583984, 46.655832101160954 ], [ 15.022275333876879, 46.655806283077276 ], [ 15.022376356856107, 46.655767416176261 ], [ 15.022501499953075, 46.655710993555481 ], [ 15.022602352217017, 46.655642280797714 ], [ 15.022683104056364, 46.65555948898151 ], [ 15.022720551027641, 46.655493231274932 ], [ 15.022721014652529, 46.655403535983837 ], [ 15.02269336430423, 46.655321856703303 ], [ 15.022684989687221, 46.655247071880133 ], [ 15.022700520810618, 46.65517556889241 ], [ 15.022763691708448, 46.655103012615001 ], [ 15.022852219643276, 46.655043864006643 ], [ 15.022892931944122, 46.655016662975719 ], [ 15.023061410465955, 46.654919164410742 ], [ 15.023296019847049, 46.654772499508155 ], [ 15.023484329183043, 46.654693491111722 ], [ 15.023798089902057, 46.654601278783247 ], [ 15.023954189805119, 46.654560752232747 ], [ 15.024053918956289, 46.654546749422735 ], [ 15.024153777101096, 46.654543188786072 ], [ 15.024280840973498, 46.654554078672412 ], [ 15.02437662020202, 46.654559241028579 ], [ 15.024461933747759, 46.654553456919459 ], [ 15.024529958501791, 46.654533678540133 ], [ 15.024614587331495, 46.654490796605131 ], [ 15.024774822722144, 46.654410248387066 ], [ 15.024916640037162, 46.654380987251209 ], [ 15.025076363009061, 46.654359521823167 ], [ 15.025213931982542, 46.654351166396779 ], [ 15.02535569682869, 46.654359661010808 ], [ 15.025579264900607, 46.654380126153626 ], [ 15.025709855595089, 46.654373807303159 ], [ 15.025882441144324, 46.654351745941739 ], [ 15.026025905303806, 46.654325886513639 ], [ 15.026247053927612, 46.65428380206734 ], [ 15.026514036467125, 46.654213359678828 ], [ 15.026751600645293, 46.65417570949792 ], [ 15.027073995527678, 46.654130237845074 ], [ 15.027441350235616, 46.654090406588146 ], [ 15.027806861222196, 46.654024990271125 ], [ 15.028112756286726, 46.654005550769092 ], [ 15.028240087250897, 46.654005754246448 ], [ 15.028326844218723, 46.654024918340028 ], [ 15.028387133578978, 46.654047451566392 ], [ 15.028448330211388, 46.654119574379955 ], [ 15.028497739246836, 46.65422465239056 ], [ 15.028541718970246, 46.654331573893273 ], [ 15.02858920961882, 46.654421216403321 ], [ 15.02865851737263, 46.654503303419126 ], [ 15.028746393510115, 46.654586761864607 ], [ 15.028891072504063, 46.654699047905929 ], [ 15.028990703104695, 46.654771069422956 ], [ 15.029112806252849, 46.654847319132564 ], [ 15.029241780161485, 46.654914732055033 ], [ 15.029291925178422, 46.654946644685367 ], [ 15.029284462681584, 46.65495199971955 ], [ 15.029410167908308, 46.655036471960159 ], [ 15.029607524461582, 46.655062525834325 ], [ 15.029829026630303, 46.65511249260949 ], [ 15.030113987359934, 46.655200759016211 ], [ 15.030345843451688, 46.655253711000015 ], [ 15.03045450548059, 46.655267380922218 ], [ 15.030560987677143, 46.655280777173623 ], [ 15.030725356859753, 46.655287952435835 ], [ 15.030819326777431, 46.65529205400248 ], [ 15.030838115495914, 46.655291317745181 ], [ 15.031025064552711, 46.655283994991166 ], [ 15.031127926743771, 46.655279960947937 ], [ 15.031462038478658, 46.655258151267972 ], [ 15.031911874688406, 46.655242145544847 ], [ 15.032078549970763, 46.655247068998797 ], [ 15.032456690458405, 46.655299242050852 ], [ 15.032624971103651, 46.655328330703263 ], [ 15.032735834580164, 46.655356219709084 ], [ 15.032848948468621, 46.655392144490776 ], [ 15.032941316836823, 46.655411815573025 ], [ 15.033033478645512, 46.655425300510039 ], [ 15.033157879656237, 46.655460355865458 ], [ 15.033279956206487, 46.655499196837589 ], [ 15.033693031930019, 46.65568735026568 ], [ 15.033973739848818, 46.65581169849407 ], [ 15.034253272393681, 46.655926006138166 ], [ 15.034405758739032, 46.655974975350773 ], [ 15.03440849810371, 46.656015516691248 ], [ 15.034423676728288, 46.656086479873913 ], [ 15.034449041476087, 46.656156048592358 ], [ 15.0344843395612, 46.656223533913902 ], [ 15.034529222036269, 46.65628826362429 ], [ 15.034583240239348, 46.656349593975513 ], [ 15.034645860382602, 46.65640691666637 ], [ 15.034716458384215, 46.656459660718966 ], [ 15.034794331986822, 46.656507303994076 ], [ 15.034878708508284, 46.656549370377874 ], [ 15.034968749181983, 46.656585443212137 ], [ 15.035063558270538, 46.656615164259705 ], [ 15.035162194932473, 46.65663823712746 ], [ 15.035263677338447, 46.656654433502545 ], [ 15.035366998315293, 46.656663592021012 ], [ 15.035471129350057, 46.65666562090739 ] ] ] } },
{ "type": "Feature", "properties": { "zone_name": "Steinberger Alpe", "shape_area": 3543543.1910199998, "shape_length": 15682.996641 }, "geometry": { "type": "Polygon", "coordinates": [ [ [ 14.993867597309729, 46.739794262802022 ], [ 14.993971668738681, 46.739789178987081 ], [ 14.99405760891794, 46.739778995488386 ], [ 14.994312975900417, 46.740109728728193 ], [ 14.995075571709389, 46.741399775786228 ], [ 14.996667695762904, 46.741821524832993 ], [ 14.99667225626116, 46.741845178506217 ], [ 14.996731414046137, 46.742152009721416 ], [ 14.996737613513604, 46.742184161229098 ], [ 14.996834022557323, 46.742684137198964 ], [ 14.99639570115632, 46.742979791596454 ], [ 14.996208829477496, 46.74294334501112 ], [ 14.996205473379334, 46.742949537771565 ], [ 14.996166478808034, 46.743021342326536 ], [ 14.996113507035272, 46.743118884860465 ], [ 14.995855541645783, 46.743593894156895 ], [ 14.995805179123206, 46.743630553578903 ], [ 14.995553918599452, 46.743813452829897 ], [ 14.995480515656755, 46.743866884132039 ], [ 14.995269794979029, 46.743883613646652 ], [ 14.994485198409402, 46.74394587239459 ], [ 14.994206306240931, 46.743968001368351 ], [ 14.993004190242528, 46.744063373595559 ], [ 14.992912575302539, 46.744070646493576 ], [ 14.992649491652204, 46.74409151183167 ], [ 14.992505993227484, 46.744071795583075 ], [ 14.992341313678946, 46.744049168920085 ], [ 14.992274064955295, 46.744192290618379 ], [ 14.991959340442515, 46.744862097581333 ], [ 14.991142464313175, 46.745746724576343 ], [ 14.991322722274459, 46.747088991006905 ], [ 14.9915428804887, 46.748728292977056 ], [ 14.991545930433553, 46.748750962964117 ], [ 14.991605794327802, 46.749196768741946 ], [ 14.991865048290633, 46.749158149820886 ], [ 14.992479255280243, 46.749003808060607 ], [ 14.993307194771873, 46.748840367232056 ], [ 14.993666240821561, 46.748821123749885 ], [ 14.994826926255707, 46.748728855266577 ], [ 14.995114894722347, 46.748655458119032 ], [ 14.995303938455605, 46.748562076161434 ], [ 14.995451375580142, 46.748394444183781 ], [ 14.995561559385528, 46.74815923697232 ], [ 14.995586553368762, 46.74807049177371 ], [ 14.99561266825301, 46.747977763209526 ], [ 14.995623999171839, 46.74778329190076 ], [ 14.995639971884341, 46.747636862220169 ], [ 14.995702464853768, 46.747408472656304 ], [ 14.995787848399511, 46.747178878409969 ], [ 14.995815442437948, 46.747104684644455 ], [ 14.995898364478542, 46.746881730649385 ], [ 14.995982935233446, 46.746694337832587 ], [ 14.996025152511427, 46.746650384977499 ], [ 14.99609931126192, 46.746573177563391 ], [ 14.996182837655121, 46.746519295848088 ], [ 14.997975534342089, 46.744912591295623 ], [ 14.998094168871004, 46.744893686217615 ], [ 14.99825474207972, 46.744830002863658 ], [ 14.998346326762649, 46.744729536996907 ], [ 14.998349505495367, 46.744726049959262 ], [ 14.998379815478666, 46.744692800477395 ], [ 14.998439685961936, 46.744593843306674 ], [ 14.998530606800417, 46.74444295794877 ], [ 14.998716759342409, 46.744381331095042 ], [ 14.998725182831032, 46.744381967920908 ], [ 14.998920857852548, 46.744396762041156 ], [ 14.999025131089613, 46.744404646106467 ], [ 14.999137806885384, 46.744435670815363 ], [ 14.999170517919991, 46.744444677696777 ], [ 14.999301755470327, 46.744507485000845 ], [ 14.999609211763197, 46.744485194560148 ], [ 15.000055275703053, 46.744452854339009 ], [ 15.000154143579598, 46.744374140634207 ], [ 15.000224248747905, 46.74431832635797 ], [ 15.000322606494127, 46.744240018434461 ], [ 15.000466953157799, 46.744125095501666 ], [ 15.000564554043283, 46.744047389394254 ], [ 15.000639486537773, 46.743987730934023 ], [ 15.000724556708349, 46.743920000613052 ], [ 15.00174069331919, 46.743058419405045 ], [ 15.001709938408951, 46.742986100922451 ], [ 15.001703284842547, 46.742909446464687 ], [ 15.001734476512036, 46.742876541272018 ], [ 15.001765678275358, 46.742843625128842 ], [ 15.001953861469932, 46.74272588420768 ], [ 15.002042871822388, 46.742639713698708 ], [ 15.002067438669526, 46.742589762669276 ], [ 15.002107792981869, 46.742507736956831 ], [ 15.002172393639638, 46.742426095795075 ], [ 15.002252210276268, 46.742383868068885 ], [ 15.00257923544588, 46.742295202200246 ], [ 15.002660459193057, 46.742248588976693 ], [ 15.002696836182276, 46.742227712600965 ], [ 15.002814192125646, 46.742132339767608 ], [ 15.002872550775805, 46.742044797998155 ], [ 15.002932633332588, 46.741994208818063 ], [ 15.002990761799991, 46.741947005272309 ], [ 15.003105359209481, 46.741855909300646 ], [ 15.003111236513279, 46.741851260144884 ], [ 15.003204703221282, 46.741777314611639 ], [ 15.003258713749917, 46.741734584223408 ], [ 15.003310606279209, 46.741693529088025 ], [ 15.003371862642885, 46.741628496158199 ], [ 15.003383560182199, 46.741616077140939 ], [ 15.003428253301207, 46.741568627471793 ], [ 15.003447538935534, 46.741529895177905 ], [ 15.003468117174364, 46.741488567672903 ], [ 15.003485059101036, 46.741454543696271 ], [ 15.003500661567026, 46.741406957524624 ], [ 15.00350922042049, 46.741380851395576 ], [ 15.003527137196548, 46.741326206745441 ], [ 15.003561232744604, 46.741222216047525 ], [ 15.003581723318096, 46.741159722005783 ], [ 15.003592949329496, 46.74113940081515 ], [ 15.003645447644004, 46.74111979684556 ], [ 15.003665473022085, 46.74112037755161 ], [ 15.00368416207596, 46.741118359981947 ], [ 15.003704922712494, 46.741110959770197 ], [ 15.003787873759293, 46.741072454471656 ], [ 15.003925110107515, 46.741063041499217 ], [ 15.003973969375304, 46.741061684239597 ], [ 15.004059956469856, 46.74105929451644 ], [ 15.004180213635228, 46.741030976919397 ], [ 15.004252066070743, 46.741010311458446 ], [ 15.004352561839355, 46.740981407428208 ], [ 15.004583883963411, 46.740945370773431 ], [ 15.004793662208332, 46.74092061364091 ], [ 15.0050026160642, 46.74090137352006 ], [ 15.005051757610479, 46.740893269401049 ], [ 15.00532642457982, 46.740847973855146 ], [ 15.005410911635039, 46.740826635757401 ], [ 15.005502944050464, 46.740823367819218 ], [ 15.005623352727032, 46.740866237602376 ], [ 15.005739906168293, 46.740907735002608 ], [ 15.005862346902266, 46.740956521939765 ], [ 15.005919054850539, 46.740978435434194 ], [ 15.006000025169836, 46.740991098020118 ], [ 15.006083347506724, 46.74098988182709 ], [ 15.006113358195599, 46.740989443768925 ], [ 15.006186448629895, 46.740984652632086 ], [ 15.006282720445142, 46.741007634619706 ], [ 15.006403069927535, 46.741053087113293 ], [ 15.006433567075289, 46.741063989951208 ], [ 15.00646975110236, 46.741076925542615 ], [ 15.006553256110006, 46.741106777505912 ], [ 15.006623651482316, 46.741131943355775 ], [ 15.006746216075799, 46.741140651672168 ], [ 15.006868960425004, 46.741133578765385 ], [ 15.006978273725226, 46.74110557996454 ], [ 15.007101836315853, 46.74105724055309 ], [ 15.007173557946807, 46.741018024221532 ], [ 15.007245628570329, 46.740978417730723 ], [ 15.007298103036684, 46.740949580137027 ], [ 15.007340996899083, 46.74092600822221 ], [ 15.007423476001165, 46.740875756084215 ], [ 15.007476442187926, 46.740843486559505 ], [ 15.007633941628992, 46.740747526782471 ], [ 15.0076812178508, 46.74073730151008 ], [ 15.007763027996875, 46.740719607162006 ], [ 15.007961578591845, 46.740705911058939 ], [ 15.008147629014355, 46.740654858215677 ], [ 15.008168872570254, 46.740650024705054 ], [ 15.008199411884737, 46.740643076276804 ], [ 15.008216763816872, 46.740639129037845 ], [ 15.008279926623402, 46.740624758197242 ], [ 15.008343007552108, 46.740610406509823 ], [ 15.008391435342029, 46.740599387781934 ], [ 15.008419186136129, 46.74059307377069 ], [ 15.008509051282065, 46.740574032333619 ], [ 15.008750740565805, 46.740522820060548 ], [ 15.008851227728361, 46.740501527060474 ], [ 15.009277870230964, 46.740411121865741 ], [ 15.009618897927794, 46.740338855982806 ], [ 15.010003071152648, 46.740257445192498 ], [ 15.010192938874978, 46.74021146071464 ], [ 15.010361977872654, 46.740169379014255 ], [ 15.010561095392548, 46.740114496741825 ], [ 15.010961977132418, 46.739943587262289 ], [ 15.011226787228336, 46.739830688633603 ], [ 15.011276525664005, 46.739816654819116 ], [ 15.011307098485918, 46.739808028267902 ], [ 15.011375078831236, 46.73978884623353 ], [ 15.011465552262512, 46.739750068669828 ], [ 15.011564920411249, 46.739707479731052 ], [ 15.011785147078427, 46.739575055323876 ], [ 15.012100324151605, 46.739385534543651 ], [ 15.012430280041123, 46.739154449365003 ], [ 15.012548681027528, 46.739010825143474 ], [ 15.012619627378346, 46.738946689620661 ], [ 15.012838147585127, 46.738853979937879 ], [ 15.012936330709691, 46.738779972554575 ], [ 15.013129106282745, 46.73858666278781 ], [ 15.013229906284939, 46.738475977259171 ], [ 15.013384447133962, 46.73821983475699 ], [ 15.013470919005536, 46.738102000572987 ], [ 15.013563116871918, 46.738024509093101 ], [ 15.013669961958756, 46.73798769727015 ], [ 15.013896831606658, 46.737924737870657 ], [ 15.014020684447422, 46.737882809617979 ], [ 15.014281790890411, 46.737785550436101 ], [ 15.014524580557811, 46.737655108817471 ], [ 15.014635979778669, 46.737593873384597 ], [ 15.015508071800786, 46.736883466590236 ], [ 15.015822841956876, 46.736484995243345 ], [ 15.016008205471906, 46.736217934527204 ], [ 15.016052426028958, 46.736121777699367 ], [ 15.016278825660642, 46.735782921853655 ], [ 15.016496497739661, 46.735436979161825 ], [ 15.016567489548414, 46.735339655273144 ], [ 15.017053091709567, 46.73485151152002 ], [ 15.017098363242896, 46.734758532299608 ], [ 15.017083602985405, 46.734692387767701 ], [ 15.020762204839043, 46.735169718860483 ], [ 15.020808994769951, 46.735150039901356 ], [ 15.020843857829469, 46.735142302955978 ], [ 15.020885052115874, 46.735098822735907 ], [ 15.020967835369998, 46.734981279992688 ], [ 15.021209149733576, 46.734765310016051 ], [ 15.021373757393514, 46.73454950693467 ], [ 15.021444771909167, 46.734410403535456 ], [ 15.021616468340593, 46.734150920399195 ], [ 15.021811193586407, 46.733834874430457 ], [ 15.021880056923893, 46.733708252514297 ], [ 15.022021399142908, 46.733568508245519 ], [ 15.022210555241777, 46.733460902506884 ], [ 15.022460144683759, 46.733355446229353 ], [ 15.022715756287523, 46.733273217531497 ], [ 15.022776720518667, 46.733266777397013 ], [ 15.023085711037281, 46.733727309326362 ], [ 15.023049068145173, 46.734606632490177 ], [ 15.023618982640642, 46.735973555928211 ], [ 15.024534121759634, 46.734610519770804 ], [ 15.024526278614879, 46.734597588129709 ], [ 15.024472045728507, 46.734508170421861 ], [ 15.02447922574575, 46.734424674141366 ], [ 15.02450336155775, 46.734336546712782 ], [ 15.02453257938769, 46.734285186247156 ], [ 15.024561092642369, 46.734235063188109 ], [ 15.024589115946947, 46.734185801945927 ], [ 15.024603143669067, 46.734161141848809 ], [ 15.024747235916371, 46.733965094389347 ], [ 15.024777949354998, 46.733929382326878 ], [ 15.024998148746688, 46.733673338654498 ], [ 15.02516715051962, 46.73352232522619 ], [ 15.025227525897122, 46.733468376180284 ], [ 15.025295035294342, 46.733422670698069 ], [ 15.025459189370022, 46.733311533573044 ], [ 15.025565725363222, 46.733249464152244 ], [ 15.025659706967787, 46.733194704647495 ], [ 15.025687582539582, 46.733177785826335 ], [ 15.026001626682852, 46.733043465165252 ], [ 15.026105344395988, 46.733004876119601 ], [ 15.026393289689359, 46.732897741759572 ], [ 15.02676781085151, 46.732777530314223 ], [ 15.027091865119836, 46.73271162411357 ], [ 15.027455749676598, 46.732632507157255 ], [ 15.027603414505933, 46.732609634751654 ], [ 15.027710125462209, 46.732593105179518 ], [ 15.027711335741417, 46.732590388567331 ], [ 15.02771335901657, 46.732587270419344 ], [ 15.027736030628191, 46.732578933497749 ], [ 15.02780618807647, 46.732558553506706 ], [ 15.028111519975452, 46.732528688249452 ], [ 15.028289735364286, 46.732500936328051 ], [ 15.028513863056245, 46.732422281829841 ], [ 15.028957528845329, 46.732197400572751 ], [ 15.029199897463807, 46.732099268939656 ], [ 15.029545350943229, 46.732005017395025 ], [ 15.02979180255784, 46.731750721251956 ], [ 15.029913416322088, 46.731435509721393 ], [ 15.029966162648286, 46.731185547183905 ], [ 15.030158817373344, 46.730795248691393 ], [ 15.030195610993331, 46.730604084419021 ], [ 15.030194172453836, 46.730441193108781 ], [ 15.030009630617794, 46.729878993950805 ], [ 15.032657763172583, 46.731216280655005 ], [ 15.0331662942565, 46.730790032235397 ], [ 15.033217806751326, 46.73079979309852 ], [ 15.035862928688976, 46.728259472831212 ], [ 15.036007003745471, 46.727892557021093 ], [ 15.036236639504853, 46.727629436098717 ], [ 15.036321353531793, 46.727436004912242 ], [ 15.036978548556073, 46.726723633340036 ], [ 15.037244945546338, 46.726291001395587 ], [ 15.037539474544134, 46.725885036571377 ], [ 15.03795563759571, 46.725747359479726 ], [ 15.038359583143183, 46.725475236067389 ], [ 15.038632402152384, 46.725210173160448 ], [ 15.038863911386482, 46.724993034822575 ], [ 15.039316667093637, 46.724807273719946 ], [ 15.039414246896728, 46.724671379632206 ], [ 15.039652869225707, 46.724626220432697 ], [ 15.040268773099818, 46.724546479545374 ], [ 15.040481542430674, 46.724458122066878 ], [ 15.040616175398402, 46.724407761434698 ], [ 15.041244117499369, 46.724280107233128 ], [ 15.041360273359365, 46.724252407011249 ], [ 15.041549073395021, 46.724207365764201 ], [ 15.041878200943268, 46.724011679038668 ], [ 15.041953142944028, 46.723967113990426 ], [ 15.042359546184466, 46.723589433131806 ], [ 15.042661117457529, 46.723399812526836 ], [ 15.042710487381543, 46.72309067508376 ], [ 15.042631190051875, 46.722920335283561 ], [ 15.042610092090918, 46.722875014601762 ], [ 15.042928952030064, 46.722446777901268 ], [ 15.043090892252936, 46.722141649605746 ], [ 15.043321112650849, 46.721625575686566 ], [ 15.043466691885415, 46.72115445231789 ], [ 15.043506581849231, 46.721025358179681 ], [ 15.043041234855037, 46.720970387324009 ], [ 15.042472867825426, 46.720903243504758 ], [ 15.042274611847027, 46.720879822204211 ], [ 15.040856464081543, 46.721002718715916 ], [ 15.040663415909453, 46.721020366247693 ], [ 15.035559559608831, 46.721469396587636 ], [ 15.035546331678464, 46.721527174827827 ], [ 15.03542041259661, 46.721908098809457 ], [ 15.035070339897393, 46.722561891041579 ], [ 15.034790666896081, 46.722967973672816 ], [ 15.034446743684338, 46.7233468077753 ], [ 15.034291315460568, 46.723456020391467 ], [ 15.03358925331016, 46.723670696782641 ], [ 15.032890526241253, 46.72383380979138 ], [ 15.032515630151746, 46.7239438459806 ], [ 15.032084612904066, 46.724110594437015 ], [ 15.031751318524622, 46.724306829225341 ], [ 15.031522155317672, 46.724569635605633 ], [ 15.031091155663278, 46.725103294471126 ], [ 15.030925337379724, 46.72530860670264 ], [ 15.030606785131136, 46.725703022413818 ], [ 15.03049747477548, 46.725861724922382 ], [ 15.03011335189592, 46.726260068132589 ], [ 15.029973320830315, 46.726381433933703 ], [ 15.029666796006847, 46.726647100055345 ], [ 15.029182948316484, 46.727133967978368 ], [ 15.028870386077362, 46.727512473758004 ], [ 15.028694157462848, 46.727923460333237 ], [ 15.028656062415543, 46.727982001415008 ], [ 15.027803928523486, 46.727479131759708 ], [ 15.026885879183736, 46.727219907752541 ], [ 15.026410176372831, 46.726768478743338 ], [ 15.025917420311295, 46.726222313690961 ], [ 15.025903801493484, 46.726207213107742 ], [ 15.024686570232682, 46.726228505084627 ], [ 15.022657993785312, 46.723783198623849 ], [ 15.019933063345311, 46.721189889799078 ], [ 15.0197021528435, 46.721137334706086 ], [ 15.019254683383176, 46.72198930230509 ], [ 15.019190586813917, 46.722029887712139 ], [ 15.019158783845757, 46.72204549451245 ], [ 15.019080338848314, 46.722092765175297 ], [ 15.019012875651534, 46.722142411935842 ], [ 15.018446035335204, 46.722501323522877 ], [ 15.015839045523007, 46.723800517420159 ], [ 15.013533490060405, 46.724807485664115 ], [ 15.012780477154747, 46.725374487169908 ], [ 15.012151087233317, 46.725676862396064 ], [ 15.011268545371669, 46.726100857178231 ], [ 15.010588291684718, 46.726443527208545 ], [ 15.010495888216006, 46.726471919888979 ], [ 15.010405364992131, 46.726507556223666 ], [ 15.010320451715764, 46.72654921399058 ], [ 15.010241991069833, 46.72659647786223 ], [ 15.010170763927846, 46.726648879442372 ], [ 15.010158255862946, 46.726660149703356 ], [ 15.009591712256382, 46.726945529233966 ], [ 15.009431554893718, 46.727028140727974 ], [ 15.009901481764748, 46.727343070562924 ], [ 15.010006072821557, 46.727393143383942 ], [ 15.010049102145178, 46.727455162731907 ], [ 15.010103167533385, 46.727516504227239 ], [ 15.010165845247398, 46.727573838918914 ], [ 15.010236514569177, 46.72762659655141 ], [ 15.010314471195521, 46.727674253970292 ], [ 15.0103989417051, 46.727716337610033 ], [ 15.010489086313139, 46.727752427952161 ], [ 15.010584009583484, 46.727782167465449 ], [ 15.010682765632271, 46.727805259630649 ], [ 15.0107843766586, 46.727821475866456 ], [ 15.010887828995468, 46.727830654688169 ], [ 15.010921343512292, 46.727831312816697 ], [ 15.011582708410664, 46.728147921008834 ], [ 15.011995921323509, 46.727695626745749 ], [ 15.012273366385353, 46.727315648776809 ], [ 15.012752392191933, 46.726358851584841 ], [ 15.012927170741154, 46.726338287749783 ], [ 15.013268377709522, 46.726298141681475 ], [ 15.013901319558036, 46.726261693953042 ], [ 15.014797628664985, 46.726188364232002 ], [ 15.015781299105505, 46.726097429328867 ], [ 15.015857215358642, 46.726090410811395 ], [ 15.016862103039353, 46.726215175827981 ], [ 15.016894040279988, 46.726219960128233 ], [ 15.017396627012644, 46.726295299932559 ], [ 15.01738804313473, 46.72636796404435 ], [ 15.017339802554361, 46.726776309037184 ], [ 15.017321002229114, 46.726970687950235 ], [ 15.017308137723697, 46.727320584130872 ], [ 15.01729809992321, 46.727335191371132 ], [ 15.017281934174777, 46.727360016950719 ], [ 15.017233134086197, 46.727424793534105 ], [ 15.01721489013466, 46.727473590871661 ], [ 15.017211296627979, 46.727539644429953 ], [ 15.017156430567363, 46.727590921167852 ], [ 15.017134231101569, 46.72769412969712 ], [ 15.017069826018814, 46.727801841815548 ], [ 15.017053190558244, 46.727889612866491 ], [ 15.017143174708439, 46.727980376355454 ], [ 15.017255651303371, 46.728093827520169 ], [ 15.017262444825127, 46.728104054785312 ], [ 15.017276902204145, 46.728118838212708 ], [ 15.017308507789792, 46.728151176684364 ], [ 15.017307666546381, 46.72818800675676 ], [ 15.017306380929574, 46.728212011854637 ], [ 15.017301304196923, 46.728277524971375 ], [ 15.017286212611882, 46.728472296417984 ], [ 15.017284655950629, 46.728492505702739 ], [ 15.01728371054225, 46.728504600855793 ], [ 15.017268220785763, 46.728519281009852 ], [ 15.017234294246009, 46.728551433710685 ], [ 15.017218255493601, 46.728566634681457 ], [ 15.016974142494373, 46.728797984295682 ], [ 15.016906535209582, 46.728862055606818 ], [ 15.016889949037743, 46.728879391162494 ], [ 15.016540720625462, 46.729244260372077 ], [ 15.016469452354007, 46.729314750567475 ], [ 15.016366558755045, 46.729309193862719 ], [ 15.016262268353234, 46.729310725519838 ], [ 15.016158718847892, 46.729319389706639 ], [ 15.016056938422144, 46.729335100260862 ], [ 15.015957938699962, 46.729357701100142 ], [ 15.015862703007171, 46.729386967293955 ], [ 15.015772178610902, 46.729422607875783 ], [ 15.015687263755977, 46.729464269631144 ], [ 15.015608805050787, 46.729511537135465 ], [ 15.015537579439782, 46.729563942013925 ], [ 15.015513210682945, 46.729585898470113 ], [ 15.01526309237707, 46.729556280218219 ], [ 15.014944868147648, 46.729594025013569 ], [ 15.014815616086668, 46.729609354961305 ], [ 15.014448546626619, 46.729601786666422 ], [ 15.014237246222777, 46.729647615964353 ], [ 15.014017182951164, 46.729714623383799 ], [ 15.014093170216228, 46.730400053492936 ], [ 15.014239680592906, 46.730490191649139 ], [ 15.014264920432733, 46.73051479444657 ], [ 15.014459715384731, 46.730704669383819 ], [ 15.01459967769749, 46.730874902994167 ], [ 15.014648033335218, 46.730933717331339 ], [ 15.014737474014872, 46.731053640381617 ], [ 15.014758865530714, 46.731082337712991 ], [ 15.01487109237061, 46.731175128062866 ], [ 15.014892553437935, 46.731189412302598 ], [ 15.014994274872787, 46.731257115590971 ], [ 15.014950206931628, 46.731259075648438 ], [ 15.014036835248909, 46.731282730366416 ], [ 15.013615320176083, 46.731343200908725 ], [ 15.012849470435695, 46.731404848853835 ], [ 15.012479202739787, 46.731573075884256 ], [ 15.012414806694839, 46.731595277238505 ], [ 15.012244725967617, 46.731674730269027 ], [ 15.012094182565297, 46.731745640562991 ], [ 15.012011032610241, 46.731784807080984 ], [ 15.011581525311403, 46.732043185071618 ], [ 15.011322312982076, 46.73214975703165 ], [ 15.011311839402804, 46.732151979408187 ], [ 15.011274090969444, 46.732120817729374 ], [ 15.011199679259196, 46.732070548002369 ], [ 15.011118356542562, 46.732025623015431 ], [ 15.011030933357816, 46.731986487870017 ], [ 15.010938276103108, 46.73195353287695 ], [ 15.010841309374383, 46.731927084527079 ], [ 15.010755473088235, 46.731910246120492 ], [ 15.01070071840393, 46.731891549371312 ], [ 15.010622197965251, 46.731886955802857 ], [ 15.010513382434091, 46.731880590826613 ], [ 15.010446169580176, 46.731890361529061 ], [ 15.010430033655723, 46.731890597678095 ], [ 15.010326478142476, 46.731899256658139 ], [ 15.010224691045069, 46.731914962101513 ], [ 15.010125682746102, 46.731937557995828 ], [ 15.010030439259076, 46.731966819421572 ], [ 15.009939906620851, 46.732002455478757 ], [ 15.009854984465765, 46.732044112978706 ], [ 15.009776515564822, 46.732091376596493 ], [ 15.009705282181425, 46.732143777919383 ], [ 15.00964198907123, 46.732200795694752 ], [ 15.009587267627706, 46.732261862965373 ], [ 15.009541661663544, 46.732326372674187 ], [ 15.009505623681239, 46.732393684015243 ], [ 15.009479511143418, 46.732463128784616 ], [ 15.009466908646445, 46.732519221504852 ], [ 15.009409645464094, 46.732551051996936 ], [ 15.009212360920042, 46.732638110238945 ], [ 15.009065332125488, 46.732640260329028 ], [ 15.00891484371394, 46.732586813303783 ], [ 15.008866162601709, 46.732569524659354 ], [ 15.008847932115804, 46.732463587761515 ], [ 15.008842416306683, 46.732366037877853 ], [ 15.008490293719968, 46.732513041903395 ], [ 15.008374723120216, 46.732561290385519 ], [ 15.008106666371823, 46.73268168478868 ], [ 15.007767292742242, 46.732753446283233 ], [ 15.007603636222047, 46.732750988757935 ], [ 15.007406701120505, 46.732671644985757 ], [ 15.007188712924636, 46.732556643510193 ], [ 15.006873217456002, 46.732432783530413 ], [ 15.006761563395177, 46.732189937423897 ], [ 15.006712850410384, 46.732083986530931 ], [ 15.006746523571907, 46.731963599883805 ], [ 15.006718485294813, 46.731786505797629 ], [ 15.006446885904801, 46.73179218068028 ], [ 15.006132348103952, 46.731779644677545 ], [ 15.005674683080519, 46.731734940906513 ], [ 15.005174291979529, 46.731678867348904 ], [ 15.00489391485762, 46.731655048198711 ], [ 15.00472387902248, 46.731640602856892 ], [ 15.004251008004204, 46.731607161911164 ], [ 15.004054163475045, 46.731736223841949 ], [ 15.003719092986747, 46.73190934631009 ], [ 15.003407710704259, 46.73205689857928 ], [ 15.00327979458168, 46.732037298911052 ], [ 15.003113691114637, 46.732118800662711 ], [ 15.002463981832038, 46.732174854497224 ], [ 15.00223282056181, 46.732329619094898 ], [ 15.00208733575932, 46.732489254522669 ], [ 15.002034582432662, 46.732547137403287 ], [ 15.001993775923408, 46.732591914058958 ], [ 15.001919553445831, 46.73267335352859 ], [ 15.001823078414432, 46.732779211964356 ], [ 15.001645373509898, 46.73297419680901 ], [ 15.001305976799873, 46.733048944011571 ], [ 14.999577983572948, 46.734188767948865 ], [ 14.998899727935184, 46.734422423072864 ], [ 14.996893987647287, 46.733907037419293 ], [ 14.996622050386723, 46.734257913316291 ], [ 14.996452666820199, 46.734417652668931 ], [ 14.996428647011111, 46.734440301626243 ], [ 14.996011751058004, 46.734833454481866 ], [ 14.995692031841415, 46.735349256031924 ], [ 14.995698741548113, 46.735839928665136 ], [ 14.994060169420633, 46.73739156203839 ], [ 14.992708201738488, 46.737006078490985 ], [ 14.992701915663359, 46.737013285116149 ], [ 14.992696534608822, 46.737019453125953 ], [ 14.992685041814866, 46.737032624631169 ], [ 14.992672733654754, 46.737046729101635 ], [ 14.992657754567162, 46.737063895701176 ], [ 14.992648284168085, 46.737074746712985 ], [ 14.9926424328302, 46.737081452276257 ], [ 14.992635705849739, 46.737089643115013 ], [ 14.992524014504482, 46.737225631828373 ], [ 14.992345493358158, 46.737442986143755 ], [ 14.992325317155016, 46.737467551339314 ], [ 14.992278167188115, 46.737474252918531 ], [ 14.993115867812584, 46.738559275592358 ], [ 14.993046447199744, 46.738610315121178 ], [ 14.992983130197103, 46.738667323921952 ], [ 14.992928383377935, 46.738728383483661 ], [ 14.992882750807135, 46.738792886825834 ], [ 14.992846687881785, 46.738860194067186 ], [ 14.992820552229693, 46.738929634355834 ], [ 14.9928046028131, 46.739000519375594 ], [ 14.992798998619014, 46.73907214336441 ], [ 14.992803795119274, 46.739143795759553 ], [ 14.992818945658968, 46.739214763876006 ], [ 14.992844299086553, 46.739284341037077 ], [ 14.992879602725907, 46.73935183822595 ], [ 14.992924507578573, 46.739416583111044 ], [ 14.992978564756605, 46.739477931792635 ], [ 14.99304124008879, 46.739535275788313 ], [ 14.993111908943122, 46.739588043907894 ], [ 14.993189868355701, 46.739635713772628 ], [ 14.993274344795447, 46.739677809004895 ], [ 14.993364498501382, 46.739713912659639 ], [ 14.993459432611207, 46.739743666193014 ], [ 14.993558205043815, 46.739766772889503 ], [ 14.993659832617359, 46.739783004099493 ], [ 14.993763306718291, 46.739792198113271 ], [ 14.993867597309729, 46.739794262802022 ] ] ] } }
]
}
